{"weatherObservation":{"elevation":432,"lng":8.533333333333333,"observation":"LSZH 270420Z AUTO 05002KT 9999 3400NW NCD M02/M02 Q1023 BECMG 3000","ICAO":"LSZH","clouds":"no clouds detected","dewPoint":"-2","cloudsCode":"NCD","datetime":"2023-12-27 04:20:00","countryCode":"CH","temperature":"-2","humidity":100,"stationName":"Zurich-Kloten","weatherCondition":"n/a","windDirection":50,"hectoPascAltimeter":1023,"windSpeed":"02","lat":47.483333333333334},"id":22}
{"weatherObservation":{"elevation":432,"lng":8.533333333333333,"observation":"LSZH 270420Z AUTO 05002KT 9999 3400NW NCD M02/M02 Q1023 BECMG 3000","ICAO":"LSZH","clouds":"no clouds detected","dewPoint":"-2","cloudsCode":"NCD","datetime":"2023-12-27 04:20:00","countryCode":"CH","temperature":"-2","humidity":100,"stationName":"Zurich-Kloten","weatherCondition":"n/a","windDirection":50,"hectoPascAltimeter":1023,"windSpeed":"02","lat":47.483333333333334},"id":22}
{"weatherObservation":{"elevation":432,"lng":8.533333333333333,"observation":"LSZH 270420Z AUTO 05002KT 9999 3400NW NCD M02/M02 Q1023 BECMG 3000","ICAO":"LSZH","clouds":"no clouds detected","dewPoint":"-2","cloudsCode":"NCD","datetime":"2023-12-27 04:20:00","countryCode":"CH","temperature":"-2","humidity":100,"stationName":"Zurich-Kloten","weatherCondition":"n/a","windDirection":50,"hectoPascAltimeter":1023,"windSpeed":"02","lat":47.483333333333334},"id":22}
{"weatherObservation":{"elevation":432,"lng":8.533333333333333,"observation":"LSZH 270420Z AUTO 05002KT 9999 3400NW NCD M02/M02 Q1023 BECMG 3000","ICAO":"LSZH","clouds":"no clouds detected","dewPoint":"-2","cloudsCode":"NCD","datetime":"2023-12-27 04:20:00","countryCode":"CH","temperature":"-2","humidity":100,"stationName":"Zurich-Kloten","weatherCondition":"n/a","windDirection":50,"hectoPascAltimeter":1023,"windSpeed":"02","lat":47.483333333333334},"id":22}
{"weatherObservation":{"elevation":432,"lng":8.533333333333333,"observation":"LSZH 270420Z AUTO 05002KT 9999 3400NW NCD M02/M02 Q1023 BECMG 3000","ICAO":"LSZH","clouds":"no clouds detected","dewPoint":"-2","cloudsCode":"NCD","datetime":"2023-12-27 04:20:00","countryCode":"CH","temperature":"-2","humidity":100,"stationName":"Zurich-Kloten","weatherCondition":"n/a","windDirection":50,"hectoPascAltimeter":1023,"windSpeed":"02","lat":47.483333333333334},"id":22}
{"weatherObservation":{"elevation":432,"lng":8.533333333333333,"observation":"LSZH 270420Z AUTO 05002KT 9999 3400NW NCD M02/M02 Q1023 BECMG 3000","ICAO":"LSZH","clouds":"no clouds detected","dewPoint":"-2","cloudsCode":"NCD","datetime":"2023-12-27 04:20:00","countryCode":"CH","temperature":"-2","humidity":100,"stationName":"Zurich-Kloten","weatherCondition":"n/a","windDirection":50,"hectoPascAltimeter":1023,"windSpeed":"02","lat":47.483333333333334},"id":22}
{"weatherObservation":{"elevation":432,"lng":8.533333333333333,"observation":"LSZH 270420Z AUTO 05002KT 9999 3400NW NCD M02/M02 Q1023 BECMG 3000","ICAO":"LSZH","clouds":"no clouds detected","dewPoint":"-2","cloudsCode":"NCD","datetime":"2023-12-27 04:20:00","countryCode":"CH","temperature":"-2","humidity":100,"stationName":"Zurich-Kloten","weatherCondition":"n/a","windDirection":50,"hectoPascAltimeter":1023,"windSpeed":"02","lat":47.483333333333334},"id":22}
{"weatherObservation":{"elevation":432,"lng":8.533333333333333,"observation":"LSZH 270420Z AUTO 05002KT 9999 3400NW NCD M02/M02 Q1023 BECMG 3000","ICAO":"LSZH","clouds":"no clouds detected","dewPoint":"-2","cloudsCode":"NCD","datetime":"2023-12-27 04:20:00","countryCode":"CH","temperature":"-2","humidity":100,"stationName":"Zurich-Kloten","weatherCondition":"n/a","windDirection":50,"hectoPascAltimeter":1023,"windSpeed":"02","lat":47.483333333333334},"id":22}
{"weatherObservation":{"elevation":432,"lng":8.533333333333333,"observation":"LSZH 270420Z AUTO 05002KT 9999 3400NW NCD M02/M02 Q1023 BECMG 3000","ICAO":"LSZH","clouds":"no clouds detected","dewPoint":"-2","cloudsCode":"NCD","datetime":"2023-12-27 04:20:00","countryCode":"CH","temperature":"-2","humidity":100,"stationName":"Zurich-Kloten","weatherCondition":"n/a","windDirection":50,"hectoPascAltimeter":1023,"windSpeed":"02","lat":47.483333333333334},"id":22}
{"weatherObservation":{"elevation":432,"lng":8.533333333333333,"observation":"LSZH 270420Z AUTO 05002KT 9999 3400NW NCD M02/M02 Q1023 BECMG 3000","ICAO":"LSZH","clouds":"no clouds detected","dewPoint":"-2","cloudsCode":"NCD","datetime":"2023-12-27 04:20:00","countryCode":"CH","temperature":"-2","humidity":100,"stationName":"Zurich-Kloten","weatherCondition":"n/a","windDirection":50,"hectoPascAltimeter":1023,"windSpeed":"02","lat":47.483333333333334},"id":22}
{"weatherObservation":{"elevation":432,"lng":8.533333333333333,"observation":"LSZH 270420Z AUTO 05002KT 9999 3400NW NCD M02/M02 Q1023 BECMG 3000","ICAO":"LSZH","clouds":"no clouds detected","dewPoint":"-2","cloudsCode":"NCD","datetime":"2023-12-27 04:20:00","countryCode":"CH","temperature":"-2","humidity":100,"stationName":"Zurich-Kloten","weatherCondition":"n/a","windDirection":50,"hectoPascAltimeter":1023,"windSpeed":"02","lat":47.483333333333334},"id":22}
{"weatherObservation":{"elevation":432,"lng":8.533333333333333,"observation":"LSZH 270420Z AUTO 05002KT 9999 3400NW NCD M02/M02 Q1023 BECMG 3000","ICAO":"LSZH","clouds":"no clouds detected","dewPoint":"-2","cloudsCode":"NCD","datetime":"2023-12-27 04:20:00","countryCode":"CH","temperature":"-2","humidity":100,"stationName":"Zurich-Kloten","weatherCondition":"n/a","windDirection":50,"hectoPascAltimeter":1023,"windSpeed":"02","lat":47.483333333333334},"id":22}
{"weatherObservation":{"elevation":432,"lng":8.533333333333333,"observation":"LSZH 270420Z AUTO 05002KT 9999 3400NW NCD M02/M02 Q1023 BECMG 3000","ICAO":"LSZH","clouds":"no clouds detected","dewPoint":"-2","cloudsCode":"NCD","datetime":"2023-12-27 04:20:00","countryCode":"CH","temperature":"-2","humidity":100,"stationName":"Zurich-Kloten","weatherCondition":"n/a","windDirection":50,"hectoPascAltimeter":1023,"windSpeed":"02","lat":47.483333333333334},"id":22}
{"weatherObservation":{"elevation":432,"lng":8.533333333333333,"observation":"LSZH 270420Z AUTO 05002KT 9999 3400NW NCD M02/M02 Q1023 BECMG 3000","ICAO":"LSZH","clouds":"no clouds detected","dewPoint":"-2","cloudsCode":"NCD","datetime":"2023-12-27 04:20:00","countryCode":"CH","temperature":"-2","humidity":100,"stationName":"Zurich-Kloten","weatherCondition":"n/a","windDirection":50,"hectoPascAltimeter":1023,"windSpeed":"02","lat":47.483333333333334},"id":22}
{"weatherObservation":{"elevation":432,"lng":8.533333333333333,"observation":"LSZH 270420Z AUTO 05002KT 9999 3400NW NCD M02/M02 Q1023 BECMG 3000","ICAO":"LSZH","clouds":"no clouds detected","dewPoint":"-2","cloudsCode":"NCD","datetime":"2023-12-27 04:20:00","countryCode":"CH","temperature":"-2","humidity":100,"stationName":"Zurich-Kloten","weatherCondition":"n/a","windDirection":50,"hectoPascAltimeter":1023,"windSpeed":"02","lat":47.483333333333334},"id":22}
{"weatherObservation":{"elevation":432,"lng":8.533333333333333,"observation":"LSZH 270420Z AUTO 05002KT 9999 3400NW NCD M02/M02 Q1023 BECMG 3000","ICAO":"LSZH","clouds":"no clouds detected","dewPoint":"-2","cloudsCode":"NCD","datetime":"2023-12-27 04:20:00","countryCode":"CH","temperature":"-2","humidity":100,"stationName":"Zurich-Kloten","weatherCondition":"n/a","windDirection":50,"hectoPascAltimeter":1023,"windSpeed":"02","lat":47.483333333333334},"id":22}
{"weatherObservation":{"elevation":432,"lng":8.533333333333333,"observation":"LSZH 270420Z AUTO 05002KT 9999 3400NW NCD M02/M02 Q1023 BECMG 3000","ICAO":"LSZH","clouds":"no clouds detected","dewPoint":"-2","cloudsCode":"NCD","datetime":"2023-12-27 04:20:00","countryCode":"CH","temperature":"-2","humidity":100,"stationName":"Zurich-Kloten","weatherCondition":"n/a","windDirection":50,"hectoPascAltimeter":1023,"windSpeed":"02","lat":47.483333333333334},"id":22}
{"weatherObservation":{"elevation":432,"lng":8.533333333333333,"observation":"LSZH 270420Z AUTO 05002KT 9999 3400NW NCD M02/M02 Q1023 BECMG 3000","ICAO":"LSZH","clouds":"no clouds detected","dewPoint":"-2","cloudsCode":"NCD","datetime":"2023-12-27 04:20:00","countryCode":"CH","temperature":"-2","humidity":100,"stationName":"Zurich-Kloten","weatherCondition":"n/a","windDirection":50,"hectoPascAltimeter":1023,"windSpeed":"02","lat":47.483333333333334},"id":22}
{"weatherObservation":{"elevation":432,"lng":8.533333333333333,"observation":"LSZH 270420Z AUTO 05002KT 9999 3400NW NCD M02/M02 Q1023 BECMG 3000","ICAO":"LSZH","clouds":"no clouds detected","dewPoint":"-2","cloudsCode":"NCD","datetime":"2023-12-27 04:20:00","countryCode":"CH","temperature":"-2","humidity":100,"stationName":"Zurich-Kloten","weatherCondition":"n/a","windDirection":50,"hectoPascAltimeter":1023,"windSpeed":"02","lat":47.483333333333334},"id":22}
{"weatherObservation":{"elevation":432,"lng":8.533333333333333,"observation":"LSZH 270420Z AUTO 05002KT 9999 3400NW NCD M02/M02 Q1023 BECMG 3000","ICAO":"LSZH","clouds":"no clouds detected","dewPoint":"-2","cloudsCode":"NCD","datetime":"2023-12-27 04:20:00","countryCode":"CH","temperature":"-2","humidity":100,"stationName":"Zurich-Kloten","weatherCondition":"n/a","windDirection":50,"hectoPascAltimeter":1023,"windSpeed":"02","lat":47.483333333333334},"id":22}
{"weatherObservation":{"elevation":432,"lng":8.533333333333333,"observation":"LSZH 270420Z AUTO 05002KT 9999 3400NW NCD M02/M02 Q1023 BECMG 3000","ICAO":"LSZH","clouds":"no clouds detected","dewPoint":"-2","cloudsCode":"NCD","datetime":"2023-12-27 04:20:00","countryCode":"CH","temperature":"-2","humidity":100,"stationName":"Zurich-Kloten","weatherCondition":"n/a","windDirection":50,"hectoPascAltimeter":1023,"windSpeed":"02","lat":47.483333333333334},"id":22}
{"weatherObservation":{"elevation":432,"lng":8.533333333333333,"observation":"LSZH 270420Z AUTO 05002KT 9999 3400NW NCD M02/M02 Q1023 BECMG 3000","ICAO":"LSZH","clouds":"no clouds detected","dewPoint":"-2","cloudsCode":"NCD","datetime":"2023-12-27 04:20:00","countryCode":"CH","temperature":"-2","humidity":100,"stationName":"Zurich-Kloten","weatherCondition":"n/a","windDirection":50,"hectoPascAltimeter":1023,"windSpeed":"02","lat":47.483333333333334},"id":22}
{"weatherObservation":{"elevation":432,"lng":8.533333333333333,"observation":"LSZH 270420Z AUTO 05002KT 9999 3400NW NCD M02/M02 Q1023 BECMG 3000","ICAO":"LSZH","clouds":"no clouds detected","dewPoint":"-2","cloudsCode":"NCD","datetime":"2023-12-27 04:20:00","countryCode":"CH","temperature":"-2","humidity":100,"stationName":"Zurich-Kloten","weatherCondition":"n/a","windDirection":50,"hectoPascAltimeter":1023,"windSpeed":"02","lat":47.483333333333334},"id":22}
{"weatherObservation":{"elevation":432,"lng":8.533333333333333,"observation":"LSZH 270420Z AUTO 05002KT 9999 3400NW NCD M02/M02 Q1023 BECMG 3000","ICAO":"LSZH","clouds":"no clouds detected","dewPoint":"-2","cloudsCode":"NCD","datetime":"2023-12-27 04:20:00","countryCode":"CH","temperature":"-2","humidity":100,"stationName":"Zurich-Kloten","weatherCondition":"n/a","windDirection":50,"hectoPascAltimeter":1023,"windSpeed":"02","lat":47.483333333333334},"id":22}
{"weatherObservation":{"elevation":432,"lng":8.533333333333333,"observation":"LSZH 270420Z AUTO 05002KT 9999 3400NW NCD M02/M02 Q1023 BECMG 3000","ICAO":"LSZH","clouds":"no clouds detected","dewPoint":"-2","cloudsCode":"NCD","datetime":"2023-12-27 04:20:00","countryCode":"CH","temperature":"-2","humidity":100,"stationName":"Zurich-Kloten","weatherCondition":"n/a","windDirection":50,"hectoPascAltimeter":1023,"windSpeed":"02","lat":47.483333333333334},"id":22}
{"weatherObservation":{"elevation":432,"lng":8.533333333333333,"observation":"LSZH 270420Z AUTO 05002KT 9999 3400NW NCD M02/M02 Q1023 BECMG 3000","ICAO":"LSZH","clouds":"no clouds detected","dewPoint":"-2","cloudsCode":"NCD","datetime":"2023-12-27 04:20:00","countryCode":"CH","temperature":"-2","humidity":100,"stationName":"Zurich-Kloten","weatherCondition":"n/a","windDirection":50,"hectoPascAltimeter":1023,"windSpeed":"02","lat":47.483333333333334},"id":22}
{"weatherObservation":{"elevation":432,"lng":8.533333333333333,"observation":"LSZH 270420Z AUTO 05002KT 9999 3400NW NCD M02/M02 Q1023 BECMG 3000","ICAO":"LSZH","clouds":"no clouds detected","dewPoint":"-2","cloudsCode":"NCD","datetime":"2023-12-27 04:20:00","countryCode":"CH","temperature":"-2","humidity":100,"stationName":"Zurich-Kloten","weatherCondition":"n/a","windDirection":50,"hectoPascAltimeter":1023,"windSpeed":"02","lat":47.483333333333334},"id":22}
{"weatherObservation":{"elevation":432,"lng":8.533333333333333,"observation":"LSZH 270420Z AUTO 05002KT 9999 3400NW NCD M02/M02 Q1023 BECMG 3000","ICAO":"LSZH","clouds":"no clouds detected","dewPoint":"-2","cloudsCode":"NCD","datetime":"2023-12-27 04:20:00","countryCode":"CH","temperature":"-2","humidity":100,"stationName":"Zurich-Kloten","weatherCondition":"n/a","windDirection":50,"hectoPascAltimeter":1023,"windSpeed":"02","lat":47.483333333333334},"id":22}
{"weatherObservation":{"elevation":432,"lng":8.533333333333333,"observation":"LSZH 270420Z AUTO 05002KT 9999 3400NW NCD M02/M02 Q1023 BECMG 3000","ICAO":"LSZH","clouds":"no clouds detected","dewPoint":"-2","cloudsCode":"NCD","datetime":"2023-12-27 04:20:00","countryCode":"CH","temperature":"-2","humidity":100,"stationName":"Zurich-Kloten","weatherCondition":"n/a","windDirection":50,"hectoPascAltimeter":1023,"windSpeed":"02","lat":47.483333333333334},"id":22}
{"weatherObservation":{"elevation":432,"lng":8.533333333333333,"observation":"LSZH 270420Z AUTO 05002KT 9999 3400NW NCD M02/M02 Q1023 BECMG 3000","ICAO":"LSZH","clouds":"no clouds detected","dewPoint":"-2","cloudsCode":"NCD","datetime":"2023-12-27 04:20:00","countryCode":"CH","temperature":"-2","humidity":100,"stationName":"Zurich-Kloten","weatherCondition":"n/a","windDirection":50,"hectoPascAltimeter":1023,"windSpeed":"02","lat":47.483333333333334},"id":22}
{"weatherObservation":{"elevation":432,"lng":8.533333333333333,"observation":"LSZH 270420Z AUTO 05002KT 9999 3400NW NCD M02/M02 Q1023 BECMG 3000","ICAO":"LSZH","clouds":"no clouds detected","dewPoint":"-2","cloudsCode":"NCD","datetime":"2023-12-27 04:20:00","countryCode":"CH","temperature":"-2","humidity":100,"stationName":"Zurich-Kloten","weatherCondition":"n/a","windDirection":50,"hectoPascAltimeter":1023,"windSpeed":"02","lat":47.483333333333334},"id":22}
{"weatherObservation":{"elevation":432,"lng":8.533333333333333,"observation":"LSZH 270420Z AUTO 05002KT 9999 3400NW NCD M02/M02 Q1023 BECMG 3000","ICAO":"LSZH","clouds":"no clouds detected","dewPoint":"-2","cloudsCode":"NCD","datetime":"2023-12-27 04:20:00","countryCode":"CH","temperature":"-2","humidity":100,"stationName":"Zurich-Kloten","weatherCondition":"n/a","windDirection":50,"hectoPascAltimeter":1023,"windSpeed":"02","lat":47.483333333333334},"id":22}
{"weatherObservation":{"elevation":432,"lng":8.533333333333333,"observation":"LSZH 270420Z AUTO 05002KT 9999 3400NW NCD M02/M02 Q1023 BECMG 3000","ICAO":"LSZH","clouds":"no clouds detected","dewPoint":"-2","cloudsCode":"NCD","datetime":"2023-12-27 04:20:00","countryCode":"CH","temperature":"-2","humidity":100,"stationName":"Zurich-Kloten","weatherCondition":"n/a","windDirection":50,"hectoPascAltimeter":1023,"windSpeed":"02","lat":47.483333333333334},"id":22}
{"weatherObservation":{"elevation":432,"lng":8.533333333333333,"observation":"LSZH 270420Z AUTO 05002KT 9999 3400NW NCD M02/M02 Q1023 BECMG 3000","ICAO":"LSZH","clouds":"no clouds detected","dewPoint":"-2","cloudsCode":"NCD","datetime":"2023-12-27 04:20:00","countryCode":"CH","temperature":"-2","humidity":100,"stationName":"Zurich-Kloten","weatherCondition":"n/a","windDirection":50,"hectoPascAltimeter":1023,"windSpeed":"02","lat":47.483333333333334},"id":22}
{"weatherObservation":{"elevation":432,"lng":8.533333333333333,"observation":"LSZH 270420Z AUTO 05002KT 9999 3400NW NCD M02/M02 Q1023 BECMG 3000","ICAO":"LSZH","clouds":"no clouds detected","dewPoint":"-2","cloudsCode":"NCD","datetime":"2023-12-27 04:20:00","countryCode":"CH","temperature":"-2","humidity":100,"stationName":"Zurich-Kloten","weatherCondition":"n/a","windDirection":50,"hectoPascAltimeter":1023,"windSpeed":"02","lat":47.483333333333334},"id":22}
{"weatherObservation":{"elevation":432,"lng":8.533333333333333,"observation":"LSZH 270420Z AUTO 05002KT 9999 3400NW NCD M02/M02 Q1023 BECMG 3000","ICAO":"LSZH","clouds":"no clouds detected","dewPoint":"-2","cloudsCode":"NCD","datetime":"2023-12-27 04:20:00","countryCode":"CH","temperature":"-2","humidity":100,"stationName":"Zurich-Kloten","weatherCondition":"n/a","windDirection":50,"hectoPascAltimeter":1023,"windSpeed":"02","lat":47.483333333333334},"id":22}
{"weatherObservation":{"elevation":432,"lng":8.533333333333333,"observation":"LSZH 270420Z AUTO 05002KT 9999 3400NW NCD M02/M02 Q1023 BECMG 3000","ICAO":"LSZH","clouds":"no clouds detected","dewPoint":"-2","cloudsCode":"NCD","datetime":"2023-12-27 04:20:00","countryCode":"CH","temperature":"-2","humidity":100,"stationName":"Zurich-Kloten","weatherCondition":"n/a","windDirection":50,"hectoPascAltimeter":1023,"windSpeed":"02","lat":47.483333333333334},"id":22}
{"weatherObservation":{"elevation":432,"lng":8.533333333333333,"observation":"LSZH 270420Z AUTO 05002KT 9999 3400NW NCD M02/M02 Q1023 BECMG 3000","ICAO":"LSZH","clouds":"no clouds detected","dewPoint":"-2","cloudsCode":"NCD","datetime":"2023-12-27 04:20:00","countryCode":"CH","temperature":"-2","humidity":100,"stationName":"Zurich-Kloten","weatherCondition":"n/a","windDirection":50,"hectoPascAltimeter":1023,"windSpeed":"02","lat":47.483333333333334},"id":22}
{"weatherObservation":{"elevation":432,"lng":8.533333333333333,"observation":"LSZH 270420Z AUTO 05002KT 9999 3400NW NCD M02/M02 Q1023 BECMG 3000","ICAO":"LSZH","clouds":"no clouds detected","dewPoint":"-2","cloudsCode":"NCD","datetime":"2023-12-27 04:20:00","countryCode":"CH","temperature":"-2","humidity":100,"stationName":"Zurich-Kloten","weatherCondition":"n/a","windDirection":50,"hectoPascAltimeter":1023,"windSpeed":"02","lat":47.483333333333334},"id":22}
{"weatherObservation":{"elevation":432,"lng":8.533333333333333,"observation":"LSZH 270420Z AUTO 05002KT 9999 3400NW NCD M02/M02 Q1023 BECMG 3000","ICAO":"LSZH","clouds":"no clouds detected","dewPoint":"-2","cloudsCode":"NCD","datetime":"2023-12-27 04:20:00","countryCode":"CH","temperature":"-2","humidity":100,"stationName":"Zurich-Kloten","weatherCondition":"n/a","windDirection":50,"hectoPascAltimeter":1023,"windSpeed":"02","lat":47.483333333333334},"id":22}
{"weatherObservation":{"elevation":432,"lng":8.533333333333333,"observation":"LSZH 270420Z AUTO 05002KT 9999 3400NW NCD M02/M02 Q1023 BECMG 3000","ICAO":"LSZH","clouds":"no clouds detected","dewPoint":"-2","cloudsCode":"NCD","datetime":"2023-12-27 04:20:00","countryCode":"CH","temperature":"-2","humidity":100,"stationName":"Zurich-Kloten","weatherCondition":"n/a","windDirection":50,"hectoPascAltimeter":1023,"windSpeed":"02","lat":47.483333333333334},"id":22}
{"weatherObservation":{"elevation":432,"lng":8.533333333333333,"observation":"LSZH 270420Z AUTO 05002KT 9999 3400NW NCD M02/M02 Q1023 BECMG 3000","ICAO":"LSZH","clouds":"no clouds detected","dewPoint":"-2","cloudsCode":"NCD","datetime":"2023-12-27 04:20:00","countryCode":"CH","temperature":"-2","humidity":100,"stationName":"Zurich-Kloten","weatherCondition":"n/a","windDirection":50,"hectoPascAltimeter":1023,"windSpeed":"02","lat":47.483333333333334},"id":22}
{"weatherObservation":{"elevation":432,"lng":8.533333333333333,"observation":"LSZH 270420Z AUTO 05002KT 9999 3400NW NCD M02/M02 Q1023 BECMG 3000","ICAO":"LSZH","clouds":"no clouds detected","dewPoint":"-2","cloudsCode":"NCD","datetime":"2023-12-27 04:20:00","countryCode":"CH","temperature":"-2","humidity":100,"stationName":"Zurich-Kloten","weatherCondition":"n/a","windDirection":50,"hectoPascAltimeter":1023,"windSpeed":"02","lat":47.483333333333334},"id":22}
{"weatherObservation":{"elevation":432,"lng":8.533333333333333,"observation":"LSZH 270420Z AUTO 05002KT 9999 3400NW NCD M02/M02 Q1023 BECMG 3000","ICAO":"LSZH","clouds":"no clouds detected","dewPoint":"-2","cloudsCode":"NCD","datetime":"2023-12-27 04:20:00","countryCode":"CH","temperature":"-2","humidity":100,"stationName":"Zurich-Kloten","weatherCondition":"n/a","windDirection":50,"hectoPascAltimeter":1023,"windSpeed":"02","lat":47.483333333333334},"id":22}
{"weatherObservation":{"elevation":432,"lng":8.533333333333333,"observation":"LSZH 270420Z AUTO 05002KT 9999 3400NW NCD M02/M02 Q1023 BECMG 3000","ICAO":"LSZH","clouds":"no clouds detected","dewPoint":"-2","cloudsCode":"NCD","datetime":"2023-12-27 04:20:00","countryCode":"CH","temperature":"-2","humidity":100,"stationName":"Zurich-Kloten","weatherCondition":"n/a","windDirection":50,"hectoPascAltimeter":1023,"windSpeed":"02","lat":47.483333333333334},"id":22}
{"weatherObservation":{"elevation":432,"lng":8.533333333333333,"observation":"LSZH 270420Z AUTO 05002KT 9999 3400NW NCD M02/M02 Q1023 BECMG 3000","ICAO":"LSZH","clouds":"no clouds detected","dewPoint":"-2","cloudsCode":"NCD","datetime":"2023-12-27 04:20:00","countryCode":"CH","temperature":"-2","humidity":100,"stationName":"Zurich-Kloten","weatherCondition":"n/a","windDirection":50,"hectoPascAltimeter":1023,"windSpeed":"02","lat":47.483333333333334},"id":22}
{"weatherObservation":{"elevation":432,"lng":8.533333333333333,"observation":"LSZH 270420Z AUTO 05002KT 9999 3400NW NCD M02/M02 Q1023 BECMG 3000","ICAO":"LSZH","clouds":"no clouds detected","dewPoint":"-2","cloudsCode":"NCD","datetime":"2023-12-27 04:20:00","countryCode":"CH","temperature":"-2","humidity":100,"stationName":"Zurich-Kloten","weatherCondition":"n/a","windDirection":50,"hectoPascAltimeter":1023,"windSpeed":"02","lat":47.483333333333334},"id":22}
{"weatherObservation":{"elevation":432,"lng":8.533333333333333,"observation":"LSZH 270420Z AUTO 05002KT 9999 3400NW NCD M02/M02 Q1023 BECMG 3000","ICAO":"LSZH","clouds":"no clouds detected","dewPoint":"-2","cloudsCode":"NCD","datetime":"2023-12-27 04:20:00","countryCode":"CH","temperature":"-2","humidity":100,"stationName":"Zurich-Kloten","weatherCondition":"n/a","windDirection":50,"hectoPascAltimeter":1023,"windSpeed":"02","lat":47.483333333333334},"id":22}
{"weatherObservation":{"elevation":432,"lng":8.533333333333333,"observation":"LSZH 270420Z AUTO 05002KT 9999 3400NW NCD M02/M02 Q1023 BECMG 3000","ICAO":"LSZH","clouds":"no clouds detected","dewPoint":"-2","cloudsCode":"NCD","datetime":"2023-12-27 04:20:00","countryCode":"CH","temperature":"-2","humidity":100,"stationName":"Zurich-Kloten","weatherCondition":"n/a","windDirection":50,"hectoPascAltimeter":1023,"windSpeed":"02","lat":47.483333333333334},"id":22}
{"weatherObservation":{"elevation":432,"lng":8.533333333333333,"observation":"LSZH 270420Z AUTO 05002KT 9999 3400NW NCD M02/M02 Q1023 BECMG 3000","ICAO":"LSZH","clouds":"no clouds detected","dewPoint":"-2","cloudsCode":"NCD","datetime":"2023-12-27 04:20:00","countryCode":"CH","temperature":"-2","humidity":100,"stationName":"Zurich-Kloten","weatherCondition":"n/a","windDirection":50,"hectoPascAltimeter":1023,"windSpeed":"02","lat":47.483333333333334},"id":22}
{"weatherObservation":{"elevation":432,"lng":8.533333333333333,"observation":"LSZH 270420Z AUTO 05002KT 9999 3400NW NCD M02/M02 Q1023 BECMG 3000","ICAO":"LSZH","clouds":"no clouds detected","dewPoint":"-2","cloudsCode":"NCD","datetime":"2023-12-27 04:20:00","countryCode":"CH","temperature":"-2","humidity":100,"stationName":"Zurich-Kloten","weatherCondition":"n/a","windDirection":50,"hectoPascAltimeter":1023,"windSpeed":"02","lat":47.483333333333334},"id":22}
{"weatherObservation":{"elevation":432,"lng":8.533333333333333,"observation":"LSZH 270420Z AUTO 05002KT 9999 3400NW NCD M02/M02 Q1023 BECMG 3000","ICAO":"LSZH","clouds":"no clouds detected","dewPoint":"-2","cloudsCode":"NCD","datetime":"2023-12-27 04:20:00","countryCode":"CH","temperature":"-2","humidity":100,"stationName":"Zurich-Kloten","weatherCondition":"n/a","windDirection":50,"hectoPascAltimeter":1023,"windSpeed":"02","lat":47.483333333333334},"id":22}
{"weatherObservation":{"elevation":432,"lng":8.533333333333333,"observation":"LSZH 270420Z AUTO 05002KT 9999 3400NW NCD M02/M02 Q1023 BECMG 3000","ICAO":"LSZH","clouds":"no clouds detected","dewPoint":"-2","cloudsCode":"NCD","datetime":"2023-12-27 04:20:00","countryCode":"CH","temperature":"-2","humidity":100,"stationName":"Zurich-Kloten","weatherCondition":"n/a","windDirection":50,"hectoPascAltimeter":1023,"windSpeed":"02","lat":47.483333333333334},"id":22}
{"weatherObservation":{"elevation":432,"lng":8.533333333333333,"observation":"LSZH 270420Z AUTO 05002KT 9999 3400NW NCD M02/M02 Q1023 BECMG 3000","ICAO":"LSZH","clouds":"no clouds detected","dewPoint":"-2","cloudsCode":"NCD","datetime":"2023-12-27 04:20:00","countryCode":"CH","temperature":"-2","humidity":100,"stationName":"Zurich-Kloten","weatherCondition":"n/a","windDirection":50,"hectoPascAltimeter":1023,"windSpeed":"02","lat":47.483333333333334},"id":22}
{"weatherObservation":{"elevation":432,"lng":8.533333333333333,"observation":"LSZH 270420Z AUTO 05002KT 9999 3400NW NCD M02/M02 Q1023 BECMG 3000","ICAO":"LSZH","clouds":"no clouds detected","dewPoint":"-2","cloudsCode":"NCD","datetime":"2023-12-27 04:20:00","countryCode":"CH","temperature":"-2","humidity":100,"stationName":"Zurich-Kloten","weatherCondition":"n/a","windDirection":50,"hectoPascAltimeter":1023,"windSpeed":"02","lat":47.483333333333334},"id":22}
{"weatherObservation":{"elevation":432,"lng":8.533333333333333,"observation":"LSZH 270420Z AUTO 05002KT 9999 3400NW NCD M02/M02 Q1023 BECMG 3000","ICAO":"LSZH","clouds":"no clouds detected","dewPoint":"-2","cloudsCode":"NCD","datetime":"2023-12-27 04:20:00","countryCode":"CH","temperature":"-2","humidity":100,"stationName":"Zurich-Kloten","weatherCondition":"n/a","windDirection":50,"hectoPascAltimeter":1023,"windSpeed":"02","lat":47.483333333333334},"id":22}
{"weatherObservation":{"elevation":432,"lng":8.533333333333333,"observation":"LSZH 270420Z AUTO 05002KT 9999 3400NW NCD M02/M02 Q1023 BECMG 3000","ICAO":"LSZH","clouds":"no clouds detected","dewPoint":"-2","cloudsCode":"NCD","datetime":"2023-12-27 04:20:00","countryCode":"CH","temperature":"-2","humidity":100,"stationName":"Zurich-Kloten","weatherCondition":"n/a","windDirection":50,"hectoPascAltimeter":1023,"windSpeed":"02","lat":47.483333333333334},"id":22}
{"weatherObservation":{"elevation":432,"lng":8.533333333333333,"observation":"LSZH 270420Z AUTO 05002KT 9999 3400NW NCD M02/M02 Q1023 BECMG 3000","ICAO":"LSZH","clouds":"no clouds detected","dewPoint":"-2","cloudsCode":"NCD","datetime":"2023-12-27 04:20:00","countryCode":"CH","temperature":"-2","humidity":100,"stationName":"Zurich-Kloten","weatherCondition":"n/a","windDirection":50,"hectoPascAltimeter":1023,"windSpeed":"02","lat":47.483333333333334},"id":22}
{"weatherObservation":{"elevation":432,"lng":8.533333333333333,"observation":"LSZH 270420Z AUTO 05002KT 9999 3400NW NCD M02/M02 Q1023 BECMG 3000","ICAO":"LSZH","clouds":"no clouds detected","dewPoint":"-2","cloudsCode":"NCD","datetime":"2023-12-27 04:20:00","countryCode":"CH","temperature":"-2","humidity":100,"stationName":"Zurich-Kloten","weatherCondition":"n/a","windDirection":50,"hectoPascAltimeter":1023,"windSpeed":"02","lat":47.483333333333334},"id":22}
{"weatherObservation":{"elevation":432,"lng":8.533333333333333,"observation":"LSZH 270420Z AUTO 05002KT 9999 3400NW NCD M02/M02 Q1023 BECMG 3000","ICAO":"LSZH","clouds":"no clouds detected","dewPoint":"-2","cloudsCode":"NCD","datetime":"2023-12-27 04:20:00","countryCode":"CH","temperature":"-2","humidity":100,"stationName":"Zurich-Kloten","weatherCondition":"n/a","windDirection":50,"hectoPascAltimeter":1023,"windSpeed":"02","lat":47.483333333333334},"id":22}
{"weatherObservation":{"elevation":432,"lng":8.533333333333333,"observation":"LSZH 270420Z AUTO 05002KT 9999 3400NW NCD M02/M02 Q1023 BECMG 3000","ICAO":"LSZH","clouds":"no clouds detected","dewPoint":"-2","cloudsCode":"NCD","datetime":"2023-12-27 04:20:00","countryCode":"CH","temperature":"-2","humidity":100,"stationName":"Zurich-Kloten","weatherCondition":"n/a","windDirection":50,"hectoPascAltimeter":1023,"windSpeed":"02","lat":47.483333333333334},"id":22}
{"weatherObservation":{"elevation":432,"lng":8.533333333333333,"observation":"LSZH 270420Z AUTO 05002KT 9999 3400NW NCD M02/M02 Q1023 BECMG 3000","ICAO":"LSZH","clouds":"no clouds detected","dewPoint":"-2","cloudsCode":"NCD","datetime":"2023-12-27 04:20:00","countryCode":"CH","temperature":"-2","humidity":100,"stationName":"Zurich-Kloten","weatherCondition":"n/a","windDirection":50,"hectoPascAltimeter":1023,"windSpeed":"02","lat":47.483333333333334},"id":22}
{"weatherObservation":{"elevation":432,"lng":8.533333333333333,"observation":"LSZH 270420Z AUTO 05002KT 9999 3400NW NCD M02/M02 Q1023 BECMG 3000","ICAO":"LSZH","clouds":"no clouds detected","dewPoint":"-2","cloudsCode":"NCD","datetime":"2023-12-27 04:20:00","countryCode":"CH","temperature":"-2","humidity":100,"stationName":"Zurich-Kloten","weatherCondition":"n/a","windDirection":50,"hectoPascAltimeter":1023,"windSpeed":"02","lat":47.483333333333334},"id":22}
{"weatherObservation":{"elevation":432,"lng":8.533333333333333,"observation":"LSZH 270420Z AUTO 05002KT 9999 3400NW NCD M02/M02 Q1023 BECMG 3000","ICAO":"LSZH","clouds":"no clouds detected","dewPoint":"-2","cloudsCode":"NCD","datetime":"2023-12-27 04:20:00","countryCode":"CH","temperature":"-2","humidity":100,"stationName":"Zurich-Kloten","weatherCondition":"n/a","windDirection":50,"hectoPascAltimeter":1023,"windSpeed":"02","lat":47.483333333333334},"id":22}
{"weatherObservation":{"elevation":432,"lng":8.533333333333333,"observation":"LSZH 270420Z AUTO 05002KT 9999 3400NW NCD M02/M02 Q1023 BECMG 3000","ICAO":"LSZH","clouds":"no clouds detected","dewPoint":"-2","cloudsCode":"NCD","datetime":"2023-12-27 04:20:00","countryCode":"CH","temperature":"-2","humidity":100,"stationName":"Zurich-Kloten","weatherCondition":"n/a","windDirection":50,"hectoPascAltimeter":1023,"windSpeed":"02","lat":47.483333333333334},"id":22}
{"weatherObservation":{"elevation":432,"lng":8.533333333333333,"observation":"LSZH 270420Z AUTO 05002KT 9999 3400NW NCD M02/M02 Q1023 BECMG 3000","ICAO":"LSZH","clouds":"no clouds detected","dewPoint":"-2","cloudsCode":"NCD","datetime":"2023-12-27 04:20:00","countryCode":"CH","temperature":"-2","humidity":100,"stationName":"Zurich-Kloten","weatherCondition":"n/a","windDirection":50,"hectoPascAltimeter":1023,"windSpeed":"02","lat":47.483333333333334},"id":22}
{"weatherObservation":{"elevation":432,"lng":8.533333333333333,"observation":"LSZH 270420Z AUTO 05002KT 9999 3400NW NCD M02/M02 Q1023 BECMG 3000","ICAO":"LSZH","clouds":"no clouds detected","dewPoint":"-2","cloudsCode":"NCD","datetime":"2023-12-27 04:20:00","countryCode":"CH","temperature":"-2","humidity":100,"stationName":"Zurich-Kloten","weatherCondition":"n/a","windDirection":50,"hectoPascAltimeter":1023,"windSpeed":"02","lat":47.483333333333334},"id":22}
{"weatherObservation":{"elevation":432,"lng":8.533333333333333,"observation":"LSZH 270420Z AUTO 05002KT 9999 3400NW NCD M02/M02 Q1023 BECMG 3000","ICAO":"LSZH","clouds":"no clouds detected","dewPoint":"-2","cloudsCode":"NCD","datetime":"2023-12-27 04:20:00","countryCode":"CH","temperature":"-2","humidity":100,"stationName":"Zurich-Kloten","weatherCondition":"n/a","windDirection":50,"hectoPascAltimeter":1023,"windSpeed":"02","lat":47.483333333333334},"id":22}
{"weatherObservation":{"elevation":432,"lng":8.533333333333333,"observation":"LSZH 270420Z AUTO 05002KT 9999 3400NW NCD M02/M02 Q1023 BECMG 3000","ICAO":"LSZH","clouds":"no clouds detected","dewPoint":"-2","cloudsCode":"NCD","datetime":"2023-12-27 04:20:00","countryCode":"CH","temperature":"-2","humidity":100,"stationName":"Zurich-Kloten","weatherCondition":"n/a","windDirection":50,"hectoPascAltimeter":1023,"windSpeed":"02","lat":47.483333333333334},"id":22}
{"weatherObservation":{"elevation":432,"lng":8.533333333333333,"observation":"LSZH 270420Z AUTO 05002KT 9999 3400NW NCD M02/M02 Q1023 BECMG 3000","ICAO":"LSZH","clouds":"no clouds detected","dewPoint":"-2","cloudsCode":"NCD","datetime":"2023-12-27 04:20:00","countryCode":"CH","temperature":"-2","humidity":100,"stationName":"Zurich-Kloten","weatherCondition":"n/a","windDirection":50,"hectoPascAltimeter":1023,"windSpeed":"02","lat":47.483333333333334},"id":22}
{"weatherObservation":{"elevation":432,"lng":8.533333333333333,"observation":"LSZH 270420Z AUTO 05002KT 9999 3400NW NCD M02/M02 Q1023 BECMG 3000","ICAO":"LSZH","clouds":"no clouds detected","dewPoint":"-2","cloudsCode":"NCD","datetime":"2023-12-27 04:20:00","countryCode":"CH","temperature":"-2","humidity":100,"stationName":"Zurich-Kloten","weatherCondition":"n/a","windDirection":50,"hectoPascAltimeter":1023,"windSpeed":"02","lat":47.483333333333334},"id":22}
{"weatherObservation":{"elevation":432,"lng":8.533333333333333,"observation":"LSZH 270420Z AUTO 05002KT 9999 3400NW NCD M02/M02 Q1023 BECMG 3000","ICAO":"LSZH","clouds":"no clouds detected","dewPoint":"-2","cloudsCode":"NCD","datetime":"2023-12-27 04:20:00","countryCode":"CH","temperature":"-2","humidity":100,"stationName":"Zurich-Kloten","weatherCondition":"n/a","windDirection":50,"hectoPascAltimeter":1023,"windSpeed":"02","lat":47.483333333333334},"id":22}
{"weatherObservation":{"elevation":432,"lng":8.533333333333333,"observation":"LSZH 270420Z AUTO 05002KT 9999 3400NW NCD M02/M02 Q1023 BECMG 3000","ICAO":"LSZH","clouds":"no clouds detected","dewPoint":"-2","cloudsCode":"NCD","datetime":"2023-12-27 04:20:00","countryCode":"CH","temperature":"-2","humidity":100,"stationName":"Zurich-Kloten","weatherCondition":"n/a","windDirection":50,"hectoPascAltimeter":1023,"windSpeed":"02","lat":47.483333333333334},"id":22}
{"weatherObservation":{"elevation":432,"lng":8.533333333333333,"observation":"LSZH 270420Z AUTO 05002KT 9999 3400NW NCD M02/M02 Q1023 BECMG 3000","ICAO":"LSZH","clouds":"no clouds detected","dewPoint":"-2","cloudsCode":"NCD","datetime":"2023-12-27 04:20:00","countryCode":"CH","temperature":"-2","humidity":100,"stationName":"Zurich-Kloten","weatherCondition":"n/a","windDirection":50,"hectoPascAltimeter":1023,"windSpeed":"02","lat":47.483333333333334},"id":22}
{"weatherObservation":{"elevation":432,"lng":8.533333333333333,"observation":"LSZH 270420Z AUTO 05002KT 9999 3400NW NCD M02/M02 Q1023 BECMG 3000","ICAO":"LSZH","clouds":"no clouds detected","dewPoint":"-2","cloudsCode":"NCD","datetime":"2023-12-27 04:20:00","countryCode":"CH","temperature":"-2","humidity":100,"stationName":"Zurich-Kloten","weatherCondition":"n/a","windDirection":50,"hectoPascAltimeter":1023,"windSpeed":"02","lat":47.483333333333334},"id":22}
{"weatherObservation":{"elevation":432,"lng":8.533333333333333,"observation":"LSZH 270420Z AUTO 05002KT 9999 3400NW NCD M02/M02 Q1023 BECMG 3000","ICAO":"LSZH","clouds":"no clouds detected","dewPoint":"-2","cloudsCode":"NCD","datetime":"2023-12-27 04:20:00","countryCode":"CH","temperature":"-2","humidity":100,"stationName":"Zurich-Kloten","weatherCondition":"n/a","windDirection":50,"hectoPascAltimeter":1023,"windSpeed":"02","lat":47.483333333333334},"id":22}
{"weatherObservation":{"elevation":432,"lng":8.533333333333333,"observation":"LSZH 270420Z AUTO 05002KT 9999 3400NW NCD M02/M02 Q1023 BECMG 3000","ICAO":"LSZH","clouds":"no clouds detected","dewPoint":"-2","cloudsCode":"NCD","datetime":"2023-12-27 04:20:00","countryCode":"CH","temperature":"-2","humidity":100,"stationName":"Zurich-Kloten","weatherCondition":"n/a","windDirection":50,"hectoPascAltimeter":1023,"windSpeed":"02","lat":47.483333333333334},"id":22}
{"weatherObservation":{"elevation":432,"lng":8.533333333333333,"observation":"LSZH 270420Z AUTO 05002KT 9999 3400NW NCD M02/M02 Q1023 BECMG 3000","ICAO":"LSZH","clouds":"no clouds detected","dewPoint":"-2","cloudsCode":"NCD","datetime":"2023-12-27 04:20:00","countryCode":"CH","temperature":"-2","humidity":100,"stationName":"Zurich-Kloten","weatherCondition":"n/a","windDirection":50,"hectoPascAltimeter":1023,"windSpeed":"02","lat":47.483333333333334},"id":22}
{"weatherObservation":{"elevation":432,"lng":8.533333333333333,"observation":"LSZH 270420Z AUTO 05002KT 9999 3400NW NCD M02/M02 Q1023 BECMG 3000","ICAO":"LSZH","clouds":"no clouds detected","dewPoint":"-2","cloudsCode":"NCD","datetime":"2023-12-27 04:20:00","countryCode":"CH","temperature":"-2","humidity":100,"stationName":"Zurich-Kloten","weatherCondition":"n/a","windDirection":50,"hectoPascAltimeter":1023,"windSpeed":"02","lat":47.483333333333334},"id":22}
{"weatherObservation":{"elevation":432,"lng":8.533333333333333,"observation":"LSZH 270420Z AUTO 05002KT 9999 3400NW NCD M02/M02 Q1023 BECMG 3000","ICAO":"LSZH","clouds":"no clouds detected","dewPoint":"-2","cloudsCode":"NCD","datetime":"2023-12-27 04:20:00","countryCode":"CH","temperature":"-2","humidity":100,"stationName":"Zurich-Kloten","weatherCondition":"n/a","windDirection":50,"hectoPascAltimeter":1023,"windSpeed":"02","lat":47.483333333333334},"id":22}
{"weatherObservation":{"elevation":432,"lng":8.533333333333333,"observation":"LSZH 270420Z AUTO 05002KT 9999 3400NW NCD M02/M02 Q1023 BECMG 3000","ICAO":"LSZH","clouds":"no clouds detected","dewPoint":"-2","cloudsCode":"NCD","datetime":"2023-12-27 04:20:00","countryCode":"CH","temperature":"-2","humidity":100,"stationName":"Zurich-Kloten","weatherCondition":"n/a","windDirection":50,"hectoPascAltimeter":1023,"windSpeed":"02","lat":47.483333333333334},"id":22}
{"weatherObservation":{"elevation":432,"lng":8.533333333333333,"observation":"LSZH 270420Z AUTO 05002KT 9999 3400NW NCD M02/M02 Q1023 BECMG 3000","ICAO":"LSZH","clouds":"no clouds detected","dewPoint":"-2","cloudsCode":"NCD","datetime":"2023-12-27 04:20:00","countryCode":"CH","temperature":"-2","humidity":100,"stationName":"Zurich-Kloten","weatherCondition":"n/a","windDirection":50,"hectoPascAltimeter":1023,"windSpeed":"02","lat":47.483333333333334},"id":22}
{"weatherObservation":{"elevation":432,"lng":8.533333333333333,"observation":"LSZH 270420Z AUTO 05002KT 9999 3400NW NCD M02/M02 Q1023 BECMG 3000","ICAO":"LSZH","clouds":"no clouds detected","dewPoint":"-2","cloudsCode":"NCD","datetime":"2023-12-27 04:20:00","countryCode":"CH","temperature":"-2","humidity":100,"stationName":"Zurich-Kloten","weatherCondition":"n/a","windDirection":50,"hectoPascAltimeter":1023,"windSpeed":"02","lat":47.483333333333334},"id":22}
{"weatherObservation":{"elevation":432,"lng":8.533333333333333,"observation":"LSZH 270420Z AUTO 05002KT 9999 3400NW NCD M02/M02 Q1023 BECMG 3000","ICAO":"LSZH","clouds":"no clouds detected","dewPoint":"-2","cloudsCode":"NCD","datetime":"2023-12-27 04:20:00","countryCode":"CH","temperature":"-2","humidity":100,"stationName":"Zurich-Kloten","weatherCondition":"n/a","windDirection":50,"hectoPascAltimeter":1023,"windSpeed":"02","lat":47.483333333333334},"id":22}
{"weatherObservation":{"elevation":432,"lng":8.533333333333333,"observation":"LSZH 270420Z AUTO 05002KT 9999 3400NW NCD M02/M02 Q1023 BECMG 3000","ICAO":"LSZH","clouds":"no clouds detected","dewPoint":"-2","cloudsCode":"NCD","datetime":"2023-12-27 04:20:00","countryCode":"CH","temperature":"-2","humidity":100,"stationName":"Zurich-Kloten","weatherCondition":"n/a","windDirection":50,"hectoPascAltimeter":1023,"windSpeed":"02","lat":47.483333333333334},"id":22}
{"weatherObservation":{"elevation":432,"lng":8.533333333333333,"observation":"LSZH 270420Z AUTO 05002KT 9999 3400NW NCD M02/M02 Q1023 BECMG 3000","ICAO":"LSZH","clouds":"no clouds detected","dewPoint":"-2","cloudsCode":"NCD","datetime":"2023-12-27 04:20:00","countryCode":"CH","temperature":"-2","humidity":100,"stationName":"Zurich-Kloten","weatherCondition":"n/a","windDirection":50,"hectoPascAltimeter":1023,"windSpeed":"02","lat":47.483333333333334},"id":22}
{"weatherObservation":{"elevation":432,"lng":8.533333333333333,"observation":"LSZH 270420Z AUTO 05002KT 9999 3400NW NCD M02/M02 Q1023 BECMG 3000","ICAO":"LSZH","clouds":"no clouds detected","dewPoint":"-2","cloudsCode":"NCD","datetime":"2023-12-27 04:20:00","countryCode":"CH","temperature":"-2","humidity":100,"stationName":"Zurich-Kloten","weatherCondition":"n/a","windDirection":50,"hectoPascAltimeter":1023,"windSpeed":"02","lat":47.483333333333334},"id":22}
{"weatherObservation":{"elevation":432,"lng":8.533333333333333,"observation":"LSZH 270420Z AUTO 05002KT 9999 3400NW NCD M02/M02 Q1023 BECMG 3000","ICAO":"LSZH","clouds":"no clouds detected","dewPoint":"-2","cloudsCode":"NCD","datetime":"2023-12-27 04:20:00","countryCode":"CH","temperature":"-2","humidity":100,"stationName":"Zurich-Kloten","weatherCondition":"n/a","windDirection":50,"hectoPascAltimeter":1023,"windSpeed":"02","lat":47.483333333333334},"id":22}
{"weatherObservation":{"elevation":432,"lng":8.533333333333333,"observation":"LSZH 270420Z AUTO 05002KT 9999 3400NW NCD M02/M02 Q1023 BECMG 3000","ICAO":"LSZH","clouds":"no clouds detected","dewPoint":"-2","cloudsCode":"NCD","datetime":"2023-12-27 04:20:00","countryCode":"CH","temperature":"-2","humidity":100,"stationName":"Zurich-Kloten","weatherCondition":"n/a","windDirection":50,"hectoPascAltimeter":1023,"windSpeed":"02","lat":47.483333333333334},"id":22}
{"weatherObservation":{"elevation":432,"lng":8.533333333333333,"observation":"LSZH 270420Z AUTO 05002KT 9999 3400NW NCD M02/M02 Q1023 BECMG 3000","ICAO":"LSZH","clouds":"no clouds detected","dewPoint":"-2","cloudsCode":"NCD","datetime":"2023-12-27 04:20:00","countryCode":"CH","temperature":"-2","humidity":100,"stationName":"Zurich-Kloten","weatherCondition":"n/a","windDirection":50,"hectoPascAltimeter":1023,"windSpeed":"02","lat":47.483333333333334},"id":22}
{"weatherObservation":{"elevation":432,"lng":8.533333333333333,"observation":"LSZH 270420Z AUTO 05002KT 9999 3400NW NCD M02/M02 Q1023 BECMG 3000","ICAO":"LSZH","clouds":"no clouds detected","dewPoint":"-2","cloudsCode":"NCD","datetime":"2023-12-27 04:20:00","countryCode":"CH","temperature":"-2","humidity":100,"stationName":"Zurich-Kloten","weatherCondition":"n/a","windDirection":50,"hectoPascAltimeter":1023,"windSpeed":"02","lat":47.483333333333334},"id":22}
{"weatherObservation":{"elevation":432,"lng":8.533333333333333,"observation":"LSZH 270420Z AUTO 05002KT 9999 3400NW NCD M02/M02 Q1023 BECMG 3000","ICAO":"LSZH","clouds":"no clouds detected","dewPoint":"-2","cloudsCode":"NCD","datetime":"2023-12-27 04:20:00","countryCode":"CH","temperature":"-2","humidity":100,"stationName":"Zurich-Kloten","weatherCondition":"n/a","windDirection":50,"hectoPascAltimeter":1023,"windSpeed":"02","lat":47.483333333333334},"id":22}
{"weatherObservation":{"elevation":432,"lng":8.533333333333333,"observation":"LSZH 270420Z AUTO 05002KT 9999 3400NW NCD M02/M02 Q1023 BECMG 3000","ICAO":"LSZH","clouds":"no clouds detected","dewPoint":"-2","cloudsCode":"NCD","datetime":"2023-12-27 04:20:00","countryCode":"CH","temperature":"-2","humidity":100,"stationName":"Zurich-Kloten","weatherCondition":"n/a","windDirection":50,"hectoPascAltimeter":1023,"windSpeed":"02","lat":47.483333333333334},"id":22}
{"weatherObservation":{"elevation":432,"lng":8.533333333333333,"observation":"LSZH 270420Z AUTO 05002KT 9999 3400NW NCD M02/M02 Q1023 BECMG 3000","ICAO":"LSZH","clouds":"no clouds detected","dewPoint":"-2","cloudsCode":"NCD","datetime":"2023-12-27 04:20:00","countryCode":"CH","temperature":"-2","humidity":100,"stationName":"Zurich-Kloten","weatherCondition":"n/a","windDirection":50,"hectoPascAltimeter":1023,"windSpeed":"02","lat":47.483333333333334},"id":22}
{"weatherObservation":{"elevation":432,"lng":8.533333333333333,"observation":"LSZH 270420Z AUTO 05002KT 9999 3400NW NCD M02/M02 Q1023 BECMG 3000","ICAO":"LSZH","clouds":"no clouds detected","dewPoint":"-2","cloudsCode":"NCD","datetime":"2023-12-27 04:20:00","countryCode":"CH","temperature":"-2","humidity":100,"stationName":"Zurich-Kloten","weatherCondition":"n/a","windDirection":50,"hectoPascAltimeter":1023,"windSpeed":"02","lat":47.483333333333334},"id":22}
{"weatherObservation":{"elevation":432,"lng":8.533333333333333,"observation":"LSZH 270420Z AUTO 05002KT 9999 3400NW NCD M02/M02 Q1023 BECMG 3000","ICAO":"LSZH","clouds":"no clouds detected","dewPoint":"-2","cloudsCode":"NCD","datetime":"2023-12-27 04:20:00","countryCode":"CH","temperature":"-2","humidity":100,"stationName":"Zurich-Kloten","weatherCondition":"n/a","windDirection":50,"hectoPascAltimeter":1023,"windSpeed":"02","lat":47.483333333333334},"id":22}
{"weatherObservation":{"elevation":432,"lng":8.533333333333333,"observation":"LSZH 270420Z AUTO 05002KT 9999 3400NW NCD M02/M02 Q1023 BECMG 3000","ICAO":"LSZH","clouds":"no clouds detected","dewPoint":"-2","cloudsCode":"NCD","datetime":"2023-12-27 04:20:00","countryCode":"CH","temperature":"-2","humidity":100,"stationName":"Zurich-Kloten","weatherCondition":"n/a","windDirection":50,"hectoPascAltimeter":1023,"windSpeed":"02","lat":47.483333333333334},"id":22}
{"weatherObservation":{"elevation":432,"lng":8.533333333333333,"observation":"LSZH 270420Z AUTO 05002KT 9999 3400NW NCD M02/M02 Q1023 BECMG 3000","ICAO":"LSZH","clouds":"no clouds detected","dewPoint":"-2","cloudsCode":"NCD","datetime":"2023-12-27 04:20:00","countryCode":"CH","temperature":"-2","humidity":100,"stationName":"Zurich-Kloten","weatherCondition":"n/a","windDirection":50,"hectoPascAltimeter":1023,"windSpeed":"02","lat":47.483333333333334},"id":22}
{"weatherObservation":{"elevation":432,"lng":8.533333333333333,"observation":"LSZH 270420Z AUTO 05002KT 9999 3400NW NCD M02/M02 Q1023 BECMG 3000","ICAO":"LSZH","clouds":"no clouds detected","dewPoint":"-2","cloudsCode":"NCD","datetime":"2023-12-27 04:20:00","countryCode":"CH","temperature":"-2","humidity":100,"stationName":"Zurich-Kloten","weatherCondition":"n/a","windDirection":50,"hectoPascAltimeter":1023,"windSpeed":"02","lat":47.483333333333334},"id":22}[{"weatherObservation": {"elevation": 432, "lng": 8.533333333333333, "observation": "LSZH 281420Z VRB03KT 9999 FEW025 BKN040 09/03 Q1020 NOSIG", "ICAO": "LSZH", "clouds": "few clouds", "dewPoint": "3", "cloudsCode": "FEW", "datetime": "2024-02-28 14:20:00", "countryCode": "CH", "temperature": "9", "humidity": 66, "stationName": "Zurich-Kloten", "weatherCondition": "n/a", "hectoPascAltimeter": 1020, "windSpeed": "03", "lat": 47.483333333333334}, "id": 2}]
[{"weatherObservation": {"elevation": 432, "lng": 8.533333333333333, "observation": "LSZH 281420Z VRB03KT 9999 FEW025 BKN040 09/03 Q1020 NOSIG", "ICAO": "LSZH", "clouds": "few clouds", "dewPoint": "3", "cloudsCode": "FEW", "datetime": "2024-02-28 14:20:00", "countryCode": "CH", "temperature": "9", "humidity": 66, "stationName": "Zurich-Kloten", "weatherCondition": "n/a", "hectoPascAltimeter": 1020, "windSpeed": "03", "lat": 47.483333333333334}, "id": 1}]
[{"weatherObservation": {"elevation": 432, "lng": 8.533333333333333, "observation": "LSZH 281420Z VRB03KT 9999 FEW025 BKN040 09/03 Q1020 NOSIG", "ICAO": "LSZH", "clouds": "few clouds", "dewPoint": "3", "cloudsCode": "FEW", "datetime": "2024-02-28 14:20:00", "countryCode": "CH", "temperature": "9", "humidity": 66, "stationName": "Zurich-Kloten", "weatherCondition": "n/a", "hectoPascAltimeter": 1020, "windSpeed": "03", "lat": 47.483333333333334}, "id": 3}]
[{"weatherObservation": {"elevation": 432, "lng": 8.533333333333333, "observation": "LSZH 281420Z VRB03KT 9999 FEW025 BKN040 09/03 Q1020 NOSIG", "ICAO": "LSZH", "clouds": "few clouds", "dewPoint": "3", "cloudsCode": "FEW", "datetime": "2024-02-28 14:20:00", "countryCode": "CH", "temperature": "9", "humidity": 66, "stationName": "Zurich-Kloten", "weatherCondition": "n/a", "hectoPascAltimeter": 1020, "windSpeed": "03", "lat": 47.483333333333334}, "id": 5}]
[{"weatherObservation": {"elevation": 432, "lng": 8.533333333333333, "observation": "LSZH 281420Z VRB03KT 9999 FEW025 BKN040 09/03 Q1020 NOSIG", "ICAO": "LSZH", "clouds": "few clouds", "dewPoint": "3", "cloudsCode": "FEW", "datetime": "2024-02-28 14:20:00", "countryCode": "CH", "temperature": "9", "humidity": 66, "stationName": "Zurich-Kloten", "weatherCondition": "n/a", "hectoPascAltimeter": 1020, "windSpeed": "03", "lat": 47.483333333333334}, "id": 4}]
[{"weatherObservation": {"elevation": 432, "lng": 8.533333333333333, "observation": "LSZH 281420Z VRB03KT 9999 FEW025 BKN040 09/03 Q1020 NOSIG", "ICAO": "LSZH", "clouds": "few clouds", "dewPoint": "3", "cloudsCode": "FEW", "datetime": "2024-02-28 14:20:00", "countryCode": "CH", "temperature": "9", "humidity": 66, "stationName": "Zurich-Kloten", "weatherCondition": "n/a", "hectoPascAltimeter": 1020, "windSpeed": "03", "lat": 47.483333333333334}, "id": 9}]
[{"weatherObservation": {"elevation": 432, "lng": 8.533333333333333, "observation": "LSZH 281450Z 10004KT 060V140 9999 FEW025 BKN040 09/04 Q1020 NOSIG", "ICAO": "LSZH", "clouds": "few clouds", "dewPoint": "4", "cloudsCode": "FEW", "datetime": "2024-02-28 14:50:00", "countryCode": "CH", "temperature": "9", "humidity": 70, "stationName": "Zurich-Kloten", "weatherCondition": "n/a", "windDirection": 100, "hectoPascAltimeter": 1020, "windSpeed": "04", "lat": 47.483333333333334}, "id": 0}]
[{"weatherObservation": {"elevation": 432, "lng": 8.533333333333333, "observation": "LSZH 281450Z 10004KT 060V140 9999 FEW025 BKN040 09/04 Q1020 NOSIG", "ICAO": "LSZH", "clouds": "few clouds", "dewPoint": "4", "cloudsCode": "FEW", "datetime": "2024-02-28 14:50:00", "countryCode": "CH", "temperature": "9", "humidity": 70, "stationName": "Zurich-Kloten", "weatherCondition": "n/a", "windDirection": 100, "hectoPascAltimeter": 1020, "windSpeed": "04", "lat": 47.483333333333334}, "id": 1}]
[{"weatherObservation": {"elevation": 432, "lng": 8.533333333333333, "observation": "LSZH 281450Z 10004KT 060V140 9999 FEW025 BKN040 09/04 Q1020 NOSIG", "ICAO": "LSZH", "clouds": "few clouds", "dewPoint": "4", "cloudsCode": "FEW", "datetime": "2024-02-28 14:50:00", "countryCode": "CH", "temperature": "9", "humidity": 70, "stationName": "Zurich-Kloten", "weatherCondition": "n/a", "windDirection": 100, "hectoPascAltimeter": 1020, "windSpeed": "04", "lat": 47.483333333333334}, "id": 7}]
[{"weatherObservation": {"elevation": 432, "lng": 8.533333333333333, "observation": "LSZH 281450Z 10004KT 060V140 9999 FEW025 BKN040 09/04 Q1020 NOSIG", "ICAO": "LSZH", "clouds": "few clouds", "dewPoint": "4", "cloudsCode": "FEW", "datetime": "2024-02-28 14:50:00", "countryCode": "CH", "temperature": "9", "humidity": 70, "stationName": "Zurich-Kloten", "weatherCondition": "n/a", "windDirection": 100, "hectoPascAltimeter": 1020, "windSpeed": "04", "lat": 47.483333333333334}, "id": 2}]
[{"weatherObservation": {"elevation": 432, "lng": 8.533333333333333, "observation": "LSZH 281450Z 10004KT 060V140 9999 FEW025 BKN040 09/04 Q1020 NOSIG", "ICAO": "LSZH", "clouds": "few clouds", "dewPoint": "4", "cloudsCode": "FEW", "datetime": "2024-02-28 14:50:00", "countryCode": "CH", "temperature": "9", "humidity": 70, "stationName": "Zurich-Kloten", "weatherCondition": "n/a", "windDirection": 100, "hectoPascAltimeter": 1020, "windSpeed": "04", "lat": 47.483333333333334}, "id": 5}]
[{"weatherObservation": {"elevation": 432, "lng": 8.533333333333333, "observation": "LSZH 281450Z 10004KT 060V140 9999 FEW025 BKN040 09/04 Q1020 NOSIG", "ICAO": "LSZH", "clouds": "few clouds", "dewPoint": "4", "cloudsCode": "FEW", "datetime": "2024-02-28 14:50:00", "countryCode": "CH", "temperature": "9", "humidity": 70, "stationName": "Zurich-Kloten", "weatherCondition": "n/a", "windDirection": 100, "hectoPascAltimeter": 1020, "windSpeed": "04", "lat": 47.483333333333334}, "id": 6}]
[{"weatherObservation": {"elevation": 432, "lng": 8.533333333333333, "observation": "LSZH 281450Z 10004KT 060V140 9999 FEW025 BKN040 09/04 Q1020 NOSIG", "ICAO": "LSZH", "clouds": "few clouds", "dewPoint": "4", "cloudsCode": "FEW", "datetime": "2024-02-28 14:50:00", "countryCode": "CH", "temperature": "9", "humidity": 70, "stationName": "Zurich-Kloten", "weatherCondition": "n/a", "windDirection": 100, "hectoPascAltimeter": 1020, "windSpeed": "04", "lat": 47.483333333333334}, "id": 4}]
[{"weatherObservation": {"elevation": 432, "lng": 8.533333333333333, "observation": "LSZH 281450Z 10004KT 060V140 9999 FEW025 BKN040 09/04 Q1020 NOSIG", "ICAO": "LSZH", "clouds": "few clouds", "dewPoint": "4", "cloudsCode": "FEW", "datetime": "2024-02-28 14:50:00", "countryCode": "CH", "temperature": "9", "humidity": 70, "stationName": "Zurich-Kloten", "weatherCondition": "n/a", "windDirection": 100, "hectoPascAltimeter": 1020, "windSpeed": "04", "lat": 47.483333333333334}, "id": 3}]
[{"weatherObservation": {"elevation": 432, "lng": 8.533333333333333, "observation": "LSZH 281450Z 10004KT 060V140 9999 FEW025 BKN040 09/04 Q1020 NOSIG", "ICAO": "LSZH", "clouds": "few clouds", "dewPoint": "4", "cloudsCode": "FEW", "datetime": "2024-02-28 14:50:00", "countryCode": "CH", "temperature": "9", "humidity": 70, "stationName": "Zurich-Kloten", "weatherCondition": "n/a", "windDirection": 100, "hectoPascAltimeter": 1020, "windSpeed": "04", "lat": 47.483333333333334}, "id": 9}]
[{"weatherObservation": {"elevation": 432, "lng": 8.533333333333333, "observation": "LSZH 281820Z 09003KT 9999 BKN040 08/04 Q1021 NOSIG", "ICAO": "LSZH", "clouds": "broken clouds", "dewPoint": "4", "cloudsCode": "BKN", "datetime": "2024-02-28 18:20:00", "countryCode": "CH", "temperature": "8", "humidity": 75, "stationName": "Zurich-Kloten", "weatherCondition": "n/a", "windDirection": 90, "hectoPascAltimeter": 1021, "windSpeed": "03", "lat": 47.483333333333334}, "id": 7}]
[{"weatherObservation": {"elevation": 432, "lng": 8.533333333333333, "observation": "LSZH 281820Z 09003KT 9999 BKN040 08/04 Q1021 NOSIG", "ICAO": "LSZH", "clouds": "broken clouds", "dewPoint": "4", "cloudsCode": "BKN", "datetime": "2024-02-28 18:20:00", "countryCode": "CH", "temperature": "8", "humidity": 75, "stationName": "Zurich-Kloten", "weatherCondition": "n/a", "windDirection": 90, "hectoPascAltimeter": 1021, "windSpeed": "03", "lat": 47.483333333333334}, "id": 5}]
[{"weatherObservation": {"elevation": 432, "lng": 8.533333333333333, "observation": "LSZH 281820Z 09003KT 9999 BKN040 08/04 Q1021 NOSIG", "ICAO": "LSZH", "clouds": "broken clouds", "dewPoint": "4", "cloudsCode": "BKN", "datetime": "2024-02-28 18:20:00", "countryCode": "CH", "temperature": "8", "humidity": 75, "stationName": "Zurich-Kloten", "weatherCondition": "n/a", "windDirection": 90, "hectoPascAltimeter": 1021, "windSpeed": "03", "lat": 47.483333333333334}, "id": 4}]
[{"weatherObservation": {"elevation": 432, "lng": 8.533333333333333, "observation": "LSZH 281820Z 09003KT 9999 BKN040 08/04 Q1021 NOSIG", "ICAO": "LSZH", "clouds": "broken clouds", "dewPoint": "4", "cloudsCode": "BKN", "datetime": "2024-02-28 18:20:00", "countryCode": "CH", "temperature": "8", "humidity": 75, "stationName": "Zurich-Kloten", "weatherCondition": "n/a", "windDirection": 90, "hectoPascAltimeter": 1021, "windSpeed": "03", "lat": 47.483333333333334}, "id": 0}]
[{"weatherObservation": {"elevation": 432, "lng": 8.533333333333333, "observation": "LSZH 281820Z 09003KT 9999 BKN040 08/04 Q1021 NOSIG", "ICAO": "LSZH", "clouds": "broken clouds", "dewPoint": "4", "cloudsCode": "BKN", "datetime": "2024-02-28 18:20:00", "countryCode": "CH", "temperature": "8", "humidity": 75, "stationName": "Zurich-Kloten", "weatherCondition": "n/a", "windDirection": 90, "hectoPascAltimeter": 1021, "windSpeed": "03", "lat": 47.483333333333334}, "id": 2}]
[{"weatherObservation": {"elevation": 432, "lng": 8.533333333333333, "observation": "LSZH 281820Z 09003KT 9999 BKN040 08/04 Q1021 NOSIG", "ICAO": "LSZH", "clouds": "broken clouds", "dewPoint": "4", "cloudsCode": "BKN", "datetime": "2024-02-28 18:20:00", "countryCode": "CH", "temperature": "8", "humidity": 75, "stationName": "Zurich-Kloten", "weatherCondition": "n/a", "windDirection": 90, "hectoPascAltimeter": 1021, "windSpeed": "03", "lat": 47.483333333333334}, "id": 8}]
[{"weatherObservation": {"elevation": 432, "lng": 8.533333333333333, "observation": "LSZH 281820Z 09003KT 9999 BKN040 08/04 Q1021 NOSIG", "ICAO": "LSZH", "clouds": "broken clouds", "dewPoint": "4", "cloudsCode": "BKN", "datetime": "2024-02-28 18:20:00", "countryCode": "CH", "temperature": "8", "humidity": 75, "stationName": "Zurich-Kloten", "weatherCondition": "n/a", "windDirection": 90, "hectoPascAltimeter": 1021, "windSpeed": "03", "lat": 47.483333333333334}, "id": 1}]
[{"weatherObservation": {"elevation": 432, "lng": 8.533333333333333, "observation": "LSZH 281820Z 09003KT 9999 BKN040 08/04 Q1021 NOSIG", "ICAO": "LSZH", "clouds": "broken clouds", "dewPoint": "4", "cloudsCode": "BKN", "datetime": "2024-02-28 18:20:00", "countryCode": "CH", "temperature": "8", "humidity": 75, "stationName": "Zurich-Kloten", "weatherCondition": "n/a", "windDirection": 90, "hectoPascAltimeter": 1021, "windSpeed": "03", "lat": 47.483333333333334}, "id": 9}]
[{"weatherObservation": {"elevation": 432, "lng": 8.533333333333333, "observation": "LSZH 281820Z 09003KT 9999 BKN040 08/04 Q1021 NOSIG", "ICAO": "LSZH", "clouds": "broken clouds", "dewPoint": "4", "cloudsCode": "BKN", "datetime": "2024-02-28 18:20:00", "countryCode": "CH", "temperature": "8", "humidity": 75, "stationName": "Zurich-Kloten", "weatherCondition": "n/a", "windDirection": 90, "hectoPascAltimeter": 1021, "windSpeed": "03", "lat": 47.483333333333334}, "id": 6}]
[{"weatherObservation": {"elevation": 432, "lng": 8.533333333333333, "observation": "LSZH 281820Z 09003KT 9999 BKN040 08/04 Q1021 NOSIG", "ICAO": "LSZH", "clouds": "broken clouds", "dewPoint": "4", "cloudsCode": "BKN", "datetime": "2024-02-28 18:20:00", "countryCode": "CH", "temperature": "8", "humidity": 75, "stationName": "Zurich-Kloten", "weatherCondition": "n/a", "windDirection": 90, "hectoPascAltimeter": 1021, "windSpeed": "03", "lat": 47.483333333333334}, "id": 3}]
[{"weatherObservation": {"elevation": 432, "lng": 8.533333333333333, "observation": "LSZH 281820Z 09003KT 9999 BKN040 08/04 Q1021 NOSIG", "ICAO": "LSZH", "clouds": "broken clouds", "dewPoint": "4", "cloudsCode": "BKN", "datetime": "2024-02-28 18:20:00", "countryCode": "CH", "temperature": "8", "humidity": 75, "stationName": "Zurich-Kloten", "weatherCondition": "n/a", "windDirection": 90, "hectoPascAltimeter": 1021, "windSpeed": "03", "lat": 47.483333333333334}, "id": 12}]
[{"weatherObservation": {"elevation": 432, "lng": 8.533333333333333, "observation": "LSZH 281820Z 09003KT 9999 BKN040 08/04 Q1021 NOSIG", "ICAO": "LSZH", "clouds": "broken clouds", "dewPoint": "4", "cloudsCode": "BKN", "datetime": "2024-02-28 18:20:00", "countryCode": "CH", "temperature": "8", "humidity": 75, "stationName": "Zurich-Kloten", "weatherCondition": "n/a", "windDirection": 90, "hectoPascAltimeter": 1021, "windSpeed": "03", "lat": 47.483333333333334}, "id": 14}]
[{"weatherObservation": {"elevation": 432, "lng": 8.533333333333333, "observation": "LSZH 281820Z 09003KT 9999 BKN040 08/04 Q1021 NOSIG", "ICAO": "LSZH", "clouds": "broken clouds", "dewPoint": "4", "cloudsCode": "BKN", "datetime": "2024-02-28 18:20:00", "countryCode": "CH", "temperature": "8", "humidity": 75, "stationName": "Zurich-Kloten", "weatherCondition": "n/a", "windDirection": 90, "hectoPascAltimeter": 1021, "windSpeed": "03", "lat": 47.483333333333334}, "id": 7}]
[{"weatherObservation": {"elevation": 432, "lng": 8.533333333333333, "observation": "LSZH 281820Z 09003KT 9999 BKN040 08/04 Q1021 NOSIG", "ICAO": "LSZH", "clouds": "broken clouds", "dewPoint": "4", "cloudsCode": "BKN", "datetime": "2024-02-28 18:20:00", "countryCode": "CH", "temperature": "8", "humidity": 75, "stationName": "Zurich-Kloten", "weatherCondition": "n/a", "windDirection": 90, "hectoPascAltimeter": 1021, "windSpeed": "03", "lat": 47.483333333333334}, "id": 4}]
[{"weatherObservation": {"elevation": 432, "lng": 8.533333333333333, "observation": "LSZH 281820Z 09003KT 9999 BKN040 08/04 Q1021 NOSIG", "ICAO": "LSZH", "clouds": "broken clouds", "dewPoint": "4", "cloudsCode": "BKN", "datetime": "2024-02-28 18:20:00", "countryCode": "CH", "temperature": "8", "humidity": 75, "stationName": "Zurich-Kloten", "weatherCondition": "n/a", "windDirection": 90, "hectoPascAltimeter": 1021, "windSpeed": "03", "lat": 47.483333333333334}, "id": 8}]
[{"weatherObservation": {"elevation": 432, "lng": 8.533333333333333, "observation": "LSZH 281820Z 09003KT 9999 BKN040 08/04 Q1021 NOSIG", "ICAO": "LSZH", "clouds": "broken clouds", "dewPoint": "4", "cloudsCode": "BKN", "datetime": "2024-02-28 18:20:00", "countryCode": "CH", "temperature": "8", "humidity": 75, "stationName": "Zurich-Kloten", "weatherCondition": "n/a", "windDirection": 90, "hectoPascAltimeter": 1021, "windSpeed": "03", "lat": 47.483333333333334}, "id": 0}]
[{"weatherObservation": {"elevation": 432, "lng": 8.533333333333333, "observation": "LSZH 281820Z 09003KT 9999 BKN040 08/04 Q1021 NOSIG", "ICAO": "LSZH", "clouds": "broken clouds", "dewPoint": "4", "cloudsCode": "BKN", "datetime": "2024-02-28 18:20:00", "countryCode": "CH", "temperature": "8", "humidity": 75, "stationName": "Zurich-Kloten", "weatherCondition": "n/a", "windDirection": 90, "hectoPascAltimeter": 1021, "windSpeed": "03", "lat": 47.483333333333334}, "id": 1}]
[{"weatherObservation": {"elevation": 432, "lng": 8.533333333333333, "observation": "LSZH 281820Z 09003KT 9999 BKN040 08/04 Q1021 NOSIG", "ICAO": "LSZH", "clouds": "broken clouds", "dewPoint": "4", "cloudsCode": "BKN", "datetime": "2024-02-28 18:20:00", "countryCode": "CH", "temperature": "8", "humidity": 75, "stationName": "Zurich-Kloten", "weatherCondition": "n/a", "windDirection": 90, "hectoPascAltimeter": 1021, "windSpeed": "03", "lat": 47.483333333333334}, "id": 6}]
[{"weatherObservation": {"elevation": 432, "lng": 8.533333333333333, "observation": "LSZH 281820Z 09003KT 9999 BKN040 08/04 Q1021 NOSIG", "ICAO": "LSZH", "clouds": "broken clouds", "dewPoint": "4", "cloudsCode": "BKN", "datetime": "2024-02-28 18:20:00", "countryCode": "CH", "temperature": "8", "humidity": 75, "stationName": "Zurich-Kloten", "weatherCondition": "n/a", "windDirection": 90, "hectoPascAltimeter": 1021, "windSpeed": "03", "lat": 47.483333333333334}, "id": 15}]
[{"weatherObservation": {"elevation": 432, "lng": 8.533333333333333, "observation": "LSZH 281820Z 09003KT 9999 BKN040 08/04 Q1021 NOSIG", "ICAO": "LSZH", "clouds": "broken clouds", "dewPoint": "4", "cloudsCode": "BKN", "datetime": "2024-02-28 18:20:00", "countryCode": "CH", "temperature": "8", "humidity": 75, "stationName": "Zurich-Kloten", "weatherCondition": "n/a", "windDirection": 90, "hectoPascAltimeter": 1021, "windSpeed": "03", "lat": 47.483333333333334}, "id": 13}]
[{"weatherObservation": {"elevation": 432, "lng": 8.533333333333333, "observation": "LSZH 281820Z 09003KT 9999 BKN040 08/04 Q1021 NOSIG", "ICAO": "LSZH", "clouds": "broken clouds", "dewPoint": "4", "cloudsCode": "BKN", "datetime": "2024-02-28 18:20:00", "countryCode": "CH", "temperature": "8", "humidity": 75, "stationName": "Zurich-Kloten", "weatherCondition": "n/a", "windDirection": 90, "hectoPascAltimeter": 1021, "windSpeed": "03", "lat": 47.483333333333334}, "id": 2}]
[{"weatherObservation": {"elevation": 432, "lng": 8.533333333333333, "observation": "LSZH 281820Z 09003KT 9999 BKN040 08/04 Q1021 NOSIG", "ICAO": "LSZH", "clouds": "broken clouds", "dewPoint": "4", "cloudsCode": "BKN", "datetime": "2024-02-28 18:20:00", "countryCode": "CH", "temperature": "8", "humidity": 75, "stationName": "Zurich-Kloten", "weatherCondition": "n/a", "windDirection": 90, "hectoPascAltimeter": 1021, "windSpeed": "03", "lat": 47.483333333333334}, "id": 246}]
[{"weatherObservation": {"elevation": 432, "lng": 8.533333333333333, "observation": "LSZH 281820Z 09003KT 9999 BKN040 08/04 Q1021 NOSIG", "ICAO": "LSZH", "clouds": "broken clouds", "dewPoint": "4", "cloudsCode": "BKN", "datetime": "2024-02-28 18:20:00", "countryCode": "CH", "temperature": "8", "humidity": 75, "stationName": "Zurich-Kloten", "weatherCondition": "n/a", "windDirection": 90, "hectoPascAltimeter": 1021, "windSpeed": "03", "lat": 47.483333333333334}, "id": 225}]
[{"weatherObservation": {"elevation": 432, "lng": 8.533333333333333, "observation": "LSZH 281820Z 09003KT 9999 BKN040 08/04 Q1021 NOSIG", "ICAO": "LSZH", "clouds": "broken clouds", "dewPoint": "4", "cloudsCode": "BKN", "datetime": "2024-02-28 18:20:00", "countryCode": "CH", "temperature": "8", "humidity": 75, "stationName": "Zurich-Kloten", "weatherCondition": "n/a", "windDirection": 90, "hectoPascAltimeter": 1021, "windSpeed": "03", "lat": 47.483333333333334}, "id": 263}]
[{"weatherObservation": {"elevation": 432, "lng": 8.533333333333333, "observation": "LSZH 281820Z 09003KT 9999 BKN040 08/04 Q1021 NOSIG", "ICAO": "LSZH", "clouds": "broken clouds", "dewPoint": "4", "cloudsCode": "BKN", "datetime": "2024-02-28 18:20:00", "countryCode": "CH", "temperature": "8", "humidity": 75, "stationName": "Zurich-Kloten", "weatherCondition": "n/a", "windDirection": 90, "hectoPascAltimeter": 1021, "windSpeed": "03", "lat": 47.483333333333334}, "id": 364}]
[{"weatherObservation": {"elevation": 432, "lng": 8.533333333333333, "observation": "LSZH 281820Z 09003KT 9999 BKN040 08/04 Q1021 NOSIG", "ICAO": "LSZH", "clouds": "broken clouds", "dewPoint": "4", "cloudsCode": "BKN", "datetime": "2024-02-28 18:20:00", "countryCode": "CH", "temperature": "8", "humidity": 75, "stationName": "Zurich-Kloten", "weatherCondition": "n/a", "windDirection": 90, "hectoPascAltimeter": 1021, "windSpeed": "03", "lat": 47.483333333333334}, "id": 315}]
[{"weatherObservation": {"elevation": 432, "lng": 8.533333333333333, "observation": "LSZH 281820Z 09003KT 9999 BKN040 08/04 Q1021 NOSIG", "ICAO": "LSZH", "clouds": "broken clouds", "dewPoint": "4", "cloudsCode": "BKN", "datetime": "2024-02-28 18:20:00", "countryCode": "CH", "temperature": "8", "humidity": 75, "stationName": "Zurich-Kloten", "weatherCondition": "n/a", "windDirection": 90, "hectoPascAltimeter": 1021, "windSpeed": "03", "lat": 47.483333333333334}, "id": 274}]
[{"weatherObservation": {"elevation": 432, "lng": 8.533333333333333, "observation": "LSZH 281820Z 09003KT 9999 BKN040 08/04 Q1021 NOSIG", "ICAO": "LSZH", "clouds": "broken clouds", "dewPoint": "4", "cloudsCode": "BKN", "datetime": "2024-02-28 18:20:00", "countryCode": "CH", "temperature": "8", "humidity": 75, "stationName": "Zurich-Kloten", "weatherCondition": "n/a", "windDirection": 90, "hectoPascAltimeter": 1021, "windSpeed": "03", "lat": 47.483333333333334}, "id": 237}]
[{"weatherObservation": {"elevation": 432, "lng": 8.533333333333333, "observation": "LSZH 281820Z 09003KT 9999 BKN040 08/04 Q1021 NOSIG", "ICAO": "LSZH", "clouds": "broken clouds", "dewPoint": "4", "cloudsCode": "BKN", "datetime": "2024-02-28 18:20:00", "countryCode": "CH", "temperature": "8", "humidity": 75, "stationName": "Zurich-Kloten", "weatherCondition": "n/a", "windDirection": 90, "hectoPascAltimeter": 1021, "windSpeed": "03", "lat": 47.483333333333334}, "id": 233}]
[{"weatherObservation": {"elevation": 432, "lng": 8.533333333333333, "observation": "LSZH 281820Z 09003KT 9999 BKN040 08/04 Q1021 NOSIG", "ICAO": "LSZH", "clouds": "broken clouds", "dewPoint": "4", "cloudsCode": "BKN", "datetime": "2024-02-28 18:20:00", "countryCode": "CH", "temperature": "8", "humidity": 75, "stationName": "Zurich-Kloten", "weatherCondition": "n/a", "windDirection": 90, "hectoPascAltimeter": 1021, "windSpeed": "03", "lat": 47.483333333333334}, "id": 230}]
[{"weatherObservation": {"elevation": 432, "lng": 8.533333333333333, "observation": "LSZH 281820Z 09003KT 9999 BKN040 08/04 Q1021 NOSIG", "ICAO": "LSZH", "clouds": "broken clouds", "dewPoint": "4", "cloudsCode": "BKN", "datetime": "2024-02-28 18:20:00", "countryCode": "CH", "temperature": "8", "humidity": 75, "stationName": "Zurich-Kloten", "weatherCondition": "n/a", "windDirection": 90, "hectoPascAltimeter": 1021, "windSpeed": "03", "lat": 47.483333333333334}, "id": 271}]
[{"weatherObservation": {"elevation": 432, "lng": 8.533333333333333, "observation": "LSZH 281820Z 09003KT 9999 BKN040 08/04 Q1021 NOSIG", "ICAO": "LSZH", "clouds": "broken clouds", "dewPoint": "4", "cloudsCode": "BKN", "datetime": "2024-02-28 18:20:00", "countryCode": "CH", "temperature": "8", "humidity": 75, "stationName": "Zurich-Kloten", "weatherCondition": "n/a", "windDirection": 90, "hectoPascAltimeter": 1021, "windSpeed": "03", "lat": 47.483333333333334}, "id": 282}]
[{"weatherObservation": {"elevation": 432, "lng": 8.533333333333333, "observation": "LSZH 281820Z 09003KT 9999 BKN040 08/04 Q1021 NOSIG", "ICAO": "LSZH", "clouds": "broken clouds", "dewPoint": "4", "cloudsCode": "BKN", "datetime": "2024-02-28 18:20:00", "countryCode": "CH", "temperature": "8", "humidity": 75, "stationName": "Zurich-Kloten", "weatherCondition": "n/a", "windDirection": 90, "hectoPascAltimeter": 1021, "windSpeed": "03", "lat": 47.483333333333334}, "id": 247}]
[{"weatherObservation": {"elevation": 432, "lng": 8.533333333333333, "observation": "LSZH 281820Z 09003KT 9999 BKN040 08/04 Q1021 NOSIG", "ICAO": "LSZH", "clouds": "broken clouds", "dewPoint": "4", "cloudsCode": "BKN", "datetime": "2024-02-28 18:20:00", "countryCode": "CH", "temperature": "8", "humidity": 75, "stationName": "Zurich-Kloten", "weatherCondition": "n/a", "windDirection": 90, "hectoPascAltimeter": 1021, "windSpeed": "03", "lat": 47.483333333333334}, "id": 243}]
[{"weatherObservation": {"elevation": 432, "lng": 8.533333333333333, "observation": "LSZH 281820Z 09003KT 9999 BKN040 08/04 Q1021 NOSIG", "ICAO": "LSZH", "clouds": "broken clouds", "dewPoint": "4", "cloudsCode": "BKN", "datetime": "2024-02-28 18:20:00", "countryCode": "CH", "temperature": "8", "humidity": 75, "stationName": "Zurich-Kloten", "weatherCondition": "n/a", "windDirection": 90, "hectoPascAltimeter": 1021, "windSpeed": "03", "lat": 47.483333333333334}, "id": 287}]
[{"weatherObservation": {"elevation": 432, "lng": 8.533333333333333, "observation": "LSZH 281820Z 09003KT 9999 BKN040 08/04 Q1021 NOSIG", "ICAO": "LSZH", "clouds": "broken clouds", "dewPoint": "4", "cloudsCode": "BKN", "datetime": "2024-02-28 18:20:00", "countryCode": "CH", "temperature": "8", "humidity": 75, "stationName": "Zurich-Kloten", "weatherCondition": "n/a", "windDirection": 90, "hectoPascAltimeter": 1021, "windSpeed": "03", "lat": 47.483333333333334}, "id": 199}]
[{"weatherObservation": {"elevation": 432, "lng": 8.533333333333333, "observation": "LSZH 281820Z 09003KT 9999 BKN040 08/04 Q1021 NOSIG", "ICAO": "LSZH", "clouds": "broken clouds", "dewPoint": "4", "cloudsCode": "BKN", "datetime": "2024-02-28 18:20:00", "countryCode": "CH", "temperature": "8", "humidity": 75, "stationName": "Zurich-Kloten", "weatherCondition": "n/a", "windDirection": 90, "hectoPascAltimeter": 1021, "windSpeed": "03", "lat": 47.483333333333334}, "id": 207}]
[{"weatherObservation": {"elevation": 432, "lng": 8.533333333333333, "observation": "LSZH 281820Z 09003KT 9999 BKN040 08/04 Q1021 NOSIG", "ICAO": "LSZH", "clouds": "broken clouds", "dewPoint": "4", "cloudsCode": "BKN", "datetime": "2024-02-28 18:20:00", "countryCode": "CH", "temperature": "8", "humidity": 75, "stationName": "Zurich-Kloten", "weatherCondition": "n/a", "windDirection": 90, "hectoPascAltimeter": 1021, "windSpeed": "03", "lat": 47.483333333333334}, "id": 262}]
[{"weatherObservation": {"elevation": 432, "lng": 8.533333333333333, "observation": "LSZH 281820Z 09003KT 9999 BKN040 08/04 Q1021 NOSIG", "ICAO": "LSZH", "clouds": "broken clouds", "dewPoint": "4", "cloudsCode": "BKN", "datetime": "2024-02-28 18:20:00", "countryCode": "CH", "temperature": "8", "humidity": 75, "stationName": "Zurich-Kloten", "weatherCondition": "n/a", "windDirection": 90, "hectoPascAltimeter": 1021, "windSpeed": "03", "lat": 47.483333333333334}, "id": 206}]
[{"weatherObservation": {"elevation": 432, "lng": 8.533333333333333, "observation": "LSZH 281820Z 09003KT 9999 BKN040 08/04 Q1021 NOSIG", "ICAO": "LSZH", "clouds": "broken clouds", "dewPoint": "4", "cloudsCode": "BKN", "datetime": "2024-02-28 18:20:00", "countryCode": "CH", "temperature": "8", "humidity": 75, "stationName": "Zurich-Kloten", "weatherCondition": "n/a", "windDirection": 90, "hectoPascAltimeter": 1021, "windSpeed": "03", "lat": 47.483333333333334}, "id": 196}]
[{"weatherObservation": {"elevation": 432, "lng": 8.533333333333333, "observation": "LSZH 281820Z 09003KT 9999 BKN040 08/04 Q1021 NOSIG", "ICAO": "LSZH", "clouds": "broken clouds", "dewPoint": "4", "cloudsCode": "BKN", "datetime": "2024-02-28 18:20:00", "countryCode": "CH", "temperature": "8", "humidity": 75, "stationName": "Zurich-Kloten", "weatherCondition": "n/a", "windDirection": 90, "hectoPascAltimeter": 1021, "windSpeed": "03", "lat": 47.483333333333334}, "id": 291}]
[{"weatherObservation": {"elevation": 432, "lng": 8.533333333333333, "observation": "LSZH 281820Z 09003KT 9999 BKN040 08/04 Q1021 NOSIG", "ICAO": "LSZH", "clouds": "broken clouds", "dewPoint": "4", "cloudsCode": "BKN", "datetime": "2024-02-28 18:20:00", "countryCode": "CH", "temperature": "8", "humidity": 75, "stationName": "Zurich-Kloten", "weatherCondition": "n/a", "windDirection": 90, "hectoPascAltimeter": 1021, "windSpeed": "03", "lat": 47.483333333333334}, "id": 250}]
[{"weatherObservation": {"elevation": 432, "lng": 8.533333333333333, "observation": "LSZH 281820Z 09003KT 9999 BKN040 08/04 Q1021 NOSIG", "ICAO": "LSZH", "clouds": "broken clouds", "dewPoint": "4", "cloudsCode": "BKN", "datetime": "2024-02-28 18:20:00", "countryCode": "CH", "temperature": "8", "humidity": 75, "stationName": "Zurich-Kloten", "weatherCondition": "n/a", "windDirection": 90, "hectoPascAltimeter": 1021, "windSpeed": "03", "lat": 47.483333333333334}, "id": 293}]
[{"weatherObservation": {"elevation": 432, "lng": 8.533333333333333, "observation": "LSZH 281820Z 09003KT 9999 BKN040 08/04 Q1021 NOSIG", "ICAO": "LSZH", "clouds": "broken clouds", "dewPoint": "4", "cloudsCode": "BKN", "datetime": "2024-02-28 18:20:00", "countryCode": "CH", "temperature": "8", "humidity": 75, "stationName": "Zurich-Kloten", "weatherCondition": "n/a", "windDirection": 90, "hectoPascAltimeter": 1021, "windSpeed": "03", "lat": 47.483333333333334}, "id": 300}]
[{"weatherObservation": {"elevation": 432, "lng": 8.533333333333333, "observation": "LSZH 281820Z 09003KT 9999 BKN040 08/04 Q1021 NOSIG", "ICAO": "LSZH", "clouds": "broken clouds", "dewPoint": "4", "cloudsCode": "BKN", "datetime": "2024-02-28 18:20:00", "countryCode": "CH", "temperature": "8", "humidity": 75, "stationName": "Zurich-Kloten", "weatherCondition": "n/a", "windDirection": 90, "hectoPascAltimeter": 1021, "windSpeed": "03", "lat": 47.483333333333334}, "id": 276}]
[{"weatherObservation": {"elevation": 432, "lng": 8.533333333333333, "observation": "LSZH 281820Z 09003KT 9999 BKN040 08/04 Q1021 NOSIG", "ICAO": "LSZH", "clouds": "broken clouds", "dewPoint": "4", "cloudsCode": "BKN", "datetime": "2024-02-28 18:20:00", "countryCode": "CH", "temperature": "8", "humidity": 75, "stationName": "Zurich-Kloten", "weatherCondition": "n/a", "windDirection": 90, "hectoPascAltimeter": 1021, "windSpeed": "03", "lat": 47.483333333333334}, "id": 373}]
[{"weatherObservation": {"elevation": 432, "lng": 8.533333333333333, "observation": "LSZH 281820Z 09003KT 9999 BKN040 08/04 Q1021 NOSIG", "ICAO": "LSZH", "clouds": "broken clouds", "dewPoint": "4", "cloudsCode": "BKN", "datetime": "2024-02-28 18:20:00", "countryCode": "CH", "temperature": "8", "humidity": 75, "stationName": "Zurich-Kloten", "weatherCondition": "n/a", "windDirection": 90, "hectoPascAltimeter": 1021, "windSpeed": "03", "lat": 47.483333333333334}, "id": 211}]
[{"weatherObservation": {"elevation": 432, "lng": 8.533333333333333, "observation": "LSZH 281820Z 09003KT 9999 BKN040 08/04 Q1021 NOSIG", "ICAO": "LSZH", "clouds": "broken clouds", "dewPoint": "4", "cloudsCode": "BKN", "datetime": "2024-02-28 18:20:00", "countryCode": "CH", "temperature": "8", "humidity": 75, "stationName": "Zurich-Kloten", "weatherCondition": "n/a", "windDirection": 90, "hectoPascAltimeter": 1021, "windSpeed": "03", "lat": 47.483333333333334}, "id": 277}]
[{"weatherObservation": {"elevation": 432, "lng": 8.533333333333333, "observation": "LSZH 281820Z 09003KT 9999 BKN040 08/04 Q1021 NOSIG", "ICAO": "LSZH", "clouds": "broken clouds", "dewPoint": "4", "cloudsCode": "BKN", "datetime": "2024-02-28 18:20:00", "countryCode": "CH", "temperature": "8", "humidity": 75, "stationName": "Zurich-Kloten", "weatherCondition": "n/a", "windDirection": 90, "hectoPascAltimeter": 1021, "windSpeed": "03", "lat": 47.483333333333334}, "id": 286}]
[{"weatherObservation": {"elevation": 432, "lng": 8.533333333333333, "observation": "LSZH 281820Z 09003KT 9999 BKN040 08/04 Q1021 NOSIG", "ICAO": "LSZH", "clouds": "broken clouds", "dewPoint": "4", "cloudsCode": "BKN", "datetime": "2024-02-28 18:20:00", "countryCode": "CH", "temperature": "8", "humidity": 75, "stationName": "Zurich-Kloten", "weatherCondition": "n/a", "windDirection": 90, "hectoPascAltimeter": 1021, "windSpeed": "03", "lat": 47.483333333333334}, "id": 314}]
[{"weatherObservation": {"elevation": 432, "lng": 8.533333333333333, "observation": "LSZH 281820Z 09003KT 9999 BKN040 08/04 Q1021 NOSIG", "ICAO": "LSZH", "clouds": "broken clouds", "dewPoint": "4", "cloudsCode": "BKN", "datetime": "2024-02-28 18:20:00", "countryCode": "CH", "temperature": "8", "humidity": 75, "stationName": "Zurich-Kloten", "weatherCondition": "n/a", "windDirection": 90, "hectoPascAltimeter": 1021, "windSpeed": "03", "lat": 47.483333333333334}, "id": 368}]
[{"weatherObservation": {"elevation": 432, "lng": 8.533333333333333, "observation": "LSZH 281820Z 09003KT 9999 BKN040 08/04 Q1021 NOSIG", "ICAO": "LSZH", "clouds": "broken clouds", "dewPoint": "4", "cloudsCode": "BKN", "datetime": "2024-02-28 18:20:00", "countryCode": "CH", "temperature": "8", "humidity": 75, "stationName": "Zurich-Kloten", "weatherCondition": "n/a", "windDirection": 90, "hectoPascAltimeter": 1021, "windSpeed": "03", "lat": 47.483333333333334}, "id": 313}]
[{"weatherObservation": {"elevation": 432, "lng": 8.533333333333333, "observation": "LSZH 281820Z 09003KT 9999 BKN040 08/04 Q1021 NOSIG", "ICAO": "LSZH", "clouds": "broken clouds", "dewPoint": "4", "cloudsCode": "BKN", "datetime": "2024-02-28 18:20:00", "countryCode": "CH", "temperature": "8", "humidity": 75, "stationName": "Zurich-Kloten", "weatherCondition": "n/a", "windDirection": 90, "hectoPascAltimeter": 1021, "windSpeed": "03", "lat": 47.483333333333334}, "id": 374}]
[{"weatherObservation": {"elevation": 432, "lng": 8.533333333333333, "observation": "LSZH 281820Z 09003KT 9999 BKN040 08/04 Q1021 NOSIG", "ICAO": "LSZH", "clouds": "broken clouds", "dewPoint": "4", "cloudsCode": "BKN", "datetime": "2024-02-28 18:20:00", "countryCode": "CH", "temperature": "8", "humidity": 75, "stationName": "Zurich-Kloten", "weatherCondition": "n/a", "windDirection": 90, "hectoPascAltimeter": 1021, "windSpeed": "03", "lat": 47.483333333333334}, "id": 370}]
[{"weatherObservation": {"elevation": 432, "lng": 8.533333333333333, "observation": "LSZH 281820Z 09003KT 9999 BKN040 08/04 Q1021 NOSIG", "ICAO": "LSZH", "clouds": "broken clouds", "dewPoint": "4", "cloudsCode": "BKN", "datetime": "2024-02-28 18:20:00", "countryCode": "CH", "temperature": "8", "humidity": 75, "stationName": "Zurich-Kloten", "weatherCondition": "n/a", "windDirection": 90, "hectoPascAltimeter": 1021, "windSpeed": "03", "lat": 47.483333333333334}, "id": 365}]
[{"weatherObservation": {"elevation": 432, "lng": 8.533333333333333, "observation": "LSZH 281820Z 09003KT 9999 BKN040 08/04 Q1021 NOSIG", "ICAO": "LSZH", "clouds": "broken clouds", "dewPoint": "4", "cloudsCode": "BKN", "datetime": "2024-02-28 18:20:00", "countryCode": "CH", "temperature": "8", "humidity": 75, "stationName": "Zurich-Kloten", "weatherCondition": "n/a", "windDirection": 90, "hectoPascAltimeter": 1021, "windSpeed": "03", "lat": 47.483333333333334}, "id": 366}]
[{"weatherObservation": {"elevation": 432, "lng": 8.533333333333333, "observation": "LSZH 281820Z 09003KT 9999 BKN040 08/04 Q1021 NOSIG", "ICAO": "LSZH", "clouds": "broken clouds", "dewPoint": "4", "cloudsCode": "BKN", "datetime": "2024-02-28 18:20:00", "countryCode": "CH", "temperature": "8", "humidity": 75, "stationName": "Zurich-Kloten", "weatherCondition": "n/a", "windDirection": 90, "hectoPascAltimeter": 1021, "windSpeed": "03", "lat": 47.483333333333334}, "id": 369}]
[{"weatherObservation": {"elevation": 432, "lng": 8.533333333333333, "observation": "LSZH 281820Z 09003KT 9999 BKN040 08/04 Q1021 NOSIG", "ICAO": "LSZH", "clouds": "broken clouds", "dewPoint": "4", "cloudsCode": "BKN", "datetime": "2024-02-28 18:20:00", "countryCode": "CH", "temperature": "8", "humidity": 75, "stationName": "Zurich-Kloten", "weatherCondition": "n/a", "windDirection": 90, "hectoPascAltimeter": 1021, "windSpeed": "03", "lat": 47.483333333333334}, "id": 316}]
[{"weatherObservation": {"elevation": 432, "lng": 8.533333333333333, "observation": "LSZH 281820Z 09003KT 9999 BKN040 08/04 Q1021 NOSIG", "ICAO": "LSZH", "clouds": "broken clouds", "dewPoint": "4", "cloudsCode": "BKN", "datetime": "2024-02-28 18:20:00", "countryCode": "CH", "temperature": "8", "humidity": 75, "stationName": "Zurich-Kloten", "weatherCondition": "n/a", "windDirection": 90, "hectoPascAltimeter": 1021, "windSpeed": "03", "lat": 47.483333333333334}, "id": 418}]
[{"weatherObservation": {"elevation": 432, "lng": 8.533333333333333, "observation": "LSZH 281820Z 09003KT 9999 BKN040 08/04 Q1021 NOSIG", "ICAO": "LSZH", "clouds": "broken clouds", "dewPoint": "4", "cloudsCode": "BKN", "datetime": "2024-02-28 18:20:00", "countryCode": "CH", "temperature": "8", "humidity": 75, "stationName": "Zurich-Kloten", "weatherCondition": "n/a", "windDirection": 90, "hectoPascAltimeter": 1021, "windSpeed": "03", "lat": 47.483333333333334}, "id": 30}]
[{"weatherObservation": {"elevation": 432, "lng": 8.533333333333333, "observation": "LSZH 281820Z 09003KT 9999 BKN040 08/04 Q1021 NOSIG", "ICAO": "LSZH", "clouds": "broken clouds", "dewPoint": "4", "cloudsCode": "BKN", "datetime": "2024-02-28 18:20:00", "countryCode": "CH", "temperature": "8", "humidity": 75, "stationName": "Zurich-Kloten", "weatherCondition": "n/a", "windDirection": 90, "hectoPascAltimeter": 1021, "windSpeed": "03", "lat": 47.483333333333334}, "id": 40}]
[{"weatherObservation": {"elevation": 432, "lng": 8.533333333333333, "observation": "LSZH 281820Z 09003KT 9999 BKN040 08/04 Q1021 NOSIG", "ICAO": "LSZH", "clouds": "broken clouds", "dewPoint": "4", "cloudsCode": "BKN", "datetime": "2024-02-28 18:20:00", "countryCode": "CH", "temperature": "8", "humidity": 75, "stationName": "Zurich-Kloten", "weatherCondition": "n/a", "windDirection": 90, "hectoPascAltimeter": 1021, "windSpeed": "03", "lat": 47.483333333333334}, "id": 681}]
[{"weatherObservation": {"elevation": 432, "lng": 8.533333333333333, "observation": "LSZH 281820Z 09003KT 9999 BKN040 08/04 Q1021 NOSIG", "ICAO": "LSZH", "clouds": "broken clouds", "dewPoint": "4", "cloudsCode": "BKN", "datetime": "2024-02-28 18:20:00", "countryCode": "CH", "temperature": "8", "humidity": 75, "stationName": "Zurich-Kloten", "weatherCondition": "n/a", "windDirection": 90, "hectoPascAltimeter": 1021, "windSpeed": "03", "lat": 47.483333333333334}, "id": 39}]
[{"weatherObservation": {"elevation": 432, "lng": 8.533333333333333, "observation": "LSZH 281820Z 09003KT 9999 BKN040 08/04 Q1021 NOSIG", "ICAO": "LSZH", "clouds": "broken clouds", "dewPoint": "4", "cloudsCode": "BKN", "datetime": "2024-02-28 18:20:00", "countryCode": "CH", "temperature": "8", "humidity": 75, "stationName": "Zurich-Kloten", "weatherCondition": "n/a", "windDirection": 90, "hectoPascAltimeter": 1021, "windSpeed": "03", "lat": 47.483333333333334}, "id": 31}]
[{"weatherObservation": {"elevation": 432, "lng": 8.533333333333333, "observation": "LSZH 281820Z 09003KT 9999 BKN040 08/04 Q1021 NOSIG", "ICAO": "LSZH", "clouds": "broken clouds", "dewPoint": "4", "cloudsCode": "BKN", "datetime": "2024-02-28 18:20:00", "countryCode": "CH", "temperature": "8", "humidity": 75, "stationName": "Zurich-Kloten", "weatherCondition": "n/a", "windDirection": 90, "hectoPascAltimeter": 1021, "windSpeed": "03", "lat": 47.483333333333334}, "id": 37}]
[{"weatherObservation": {"elevation": 432, "lng": 8.533333333333333, "observation": "LSZH 281820Z 09003KT 9999 BKN040 08/04 Q1021 NOSIG", "ICAO": "LSZH", "clouds": "broken clouds", "dewPoint": "4", "cloudsCode": "BKN", "datetime": "2024-02-28 18:20:00", "countryCode": "CH", "temperature": "8", "humidity": 75, "stationName": "Zurich-Kloten", "weatherCondition": "n/a", "windDirection": 90, "hectoPascAltimeter": 1021, "windSpeed": "03", "lat": 47.483333333333334}, "id": 28}]
[{"weatherObservation": {"elevation": 432, "lng": 8.533333333333333, "observation": "LSZH 281820Z 09003KT 9999 BKN040 08/04 Q1021 NOSIG", "ICAO": "LSZH", "clouds": "broken clouds", "dewPoint": "4", "cloudsCode": "BKN", "datetime": "2024-02-28 18:20:00", "countryCode": "CH", "temperature": "8", "humidity": 75, "stationName": "Zurich-Kloten", "weatherCondition": "n/a", "windDirection": 90, "hectoPascAltimeter": 1021, "windSpeed": "03", "lat": 47.483333333333334}, "id": 36}]
[{"weatherObservation": {"elevation": 432, "lng": 8.533333333333333, "observation": "LSZH 281820Z 09003KT 9999 BKN040 08/04 Q1021 NOSIG", "ICAO": "LSZH", "clouds": "broken clouds", "dewPoint": "4", "cloudsCode": "BKN", "datetime": "2024-02-28 18:20:00", "countryCode": "CH", "temperature": "8", "humidity": 75, "stationName": "Zurich-Kloten", "weatherCondition": "n/a", "windDirection": 90, "hectoPascAltimeter": 1021, "windSpeed": "03", "lat": 47.483333333333334}, "id": 29}]
[{"weatherObservation": {"elevation": 432, "lng": 8.533333333333333, "observation": "LSZH 281820Z 09003KT 9999 BKN040 08/04 Q1021 NOSIG", "ICAO": "LSZH", "clouds": "broken clouds", "dewPoint": "4", "cloudsCode": "BKN", "datetime": "2024-02-28 18:20:00", "countryCode": "CH", "temperature": "8", "humidity": 75, "stationName": "Zurich-Kloten", "weatherCondition": "n/a", "windDirection": 90, "hectoPascAltimeter": 1021, "windSpeed": "03", "lat": 47.483333333333334}, "id": 33}]
[{"weatherObservation": {"elevation": 432, "lng": 8.533333333333333, "observation": "LSZH 281820Z 09003KT 9999 BKN040 08/04 Q1021 NOSIG", "ICAO": "LSZH", "clouds": "broken clouds", "dewPoint": "4", "cloudsCode": "BKN", "datetime": "2024-02-28 18:20:00", "countryCode": "CH", "temperature": "8", "humidity": 75, "stationName": "Zurich-Kloten", "weatherCondition": "n/a", "windDirection": 90, "hectoPascAltimeter": 1021, "windSpeed": "03", "lat": 47.483333333333334}, "id": 38}]
[{"weatherObservation": {"elevation": 432, "lng": 8.533333333333333, "observation": "LSZH 281820Z 09003KT 9999 BKN040 08/04 Q1021 NOSIG", "ICAO": "LSZH", "clouds": "broken clouds", "dewPoint": "4", "cloudsCode": "BKN", "datetime": "2024-02-28 18:20:00", "countryCode": "CH", "temperature": "8", "humidity": 75, "stationName": "Zurich-Kloten", "weatherCondition": "n/a", "windDirection": 90, "hectoPascAltimeter": 1021, "windSpeed": "03", "lat": 47.483333333333334}, "id": 32}]
[{"weatherObservation": {"elevation": 432, "lng": 8.533333333333333, "observation": "LSZH 281820Z 09003KT 9999 BKN040 08/04 Q1021 NOSIG", "ICAO": "LSZH", "clouds": "broken clouds", "dewPoint": "4", "cloudsCode": "BKN", "datetime": "2024-02-28 18:20:00", "countryCode": "CH", "temperature": "8", "humidity": 75, "stationName": "Zurich-Kloten", "weatherCondition": "n/a", "windDirection": 90, "hectoPascAltimeter": 1021, "windSpeed": "03", "lat": 47.483333333333334}, "id": 41}]
[{"weatherObservation": {"elevation": 432, "lng": 8.533333333333333, "observation": "LSZH 281820Z 09003KT 9999 BKN040 08/04 Q1021 NOSIG", "ICAO": "LSZH", "clouds": "broken clouds", "dewPoint": "4", "cloudsCode": "BKN", "datetime": "2024-02-28 18:20:00", "countryCode": "CH", "temperature": "8", "humidity": 75, "stationName": "Zurich-Kloten", "weatherCondition": "n/a", "windDirection": 90, "hectoPascAltimeter": 1021, "windSpeed": "03", "lat": 47.483333333333334}, "id": 9}]
[{"weatherObservation": {"elevation": 432, "lng": 8.533333333333333, "observation": "LSZH 281820Z 09003KT 9999 BKN040 08/04 Q1021 NOSIG", "ICAO": "LSZH", "clouds": "broken clouds", "dewPoint": "4", "cloudsCode": "BKN", "datetime": "2024-02-28 18:20:00", "countryCode": "CH", "temperature": "8", "humidity": 75, "stationName": "Zurich-Kloten", "weatherCondition": "n/a", "windDirection": 90, "hectoPascAltimeter": 1021, "windSpeed": "03", "lat": 47.483333333333334}, "id": 35}]
[{"weatherObservation": {"elevation": 432, "lng": 8.533333333333333, "observation": "LSZH 281820Z 09003KT 9999 BKN040 08/04 Q1021 NOSIG", "ICAO": "LSZH", "clouds": "broken clouds", "dewPoint": "4", "cloudsCode": "BKN", "datetime": "2024-02-28 18:20:00", "countryCode": "CH", "temperature": "8", "humidity": 75, "stationName": "Zurich-Kloten", "weatherCondition": "n/a", "windDirection": 90, "hectoPascAltimeter": 1021, "windSpeed": "03", "lat": 47.483333333333334}, "id": 34}]
[{"weatherObservation": {"elevation": 432, "lng": 8.533333333333333, "observation": "LSZH 281820Z 09003KT 9999 BKN040 08/04 Q1021 NOSIG", "ICAO": "LSZH", "clouds": "broken clouds", "dewPoint": "4", "cloudsCode": "BKN", "datetime": "2024-02-28 18:20:00", "countryCode": "CH", "temperature": "8", "humidity": 75, "stationName": "Zurich-Kloten", "weatherCondition": "n/a", "windDirection": 90, "hectoPascAltimeter": 1021, "windSpeed": "03", "lat": 47.483333333333334}, "id": 42}]
[{"weatherObservation": {"elevation": 432, "lng": 8.533333333333333, "observation": "LSZH 281820Z 09003KT 9999 BKN040 08/04 Q1021 NOSIG", "ICAO": "LSZH", "clouds": "broken clouds", "dewPoint": "4", "cloudsCode": "BKN", "datetime": "2024-02-28 18:20:00", "countryCode": "CH", "temperature": "8", "humidity": 75, "stationName": "Zurich-Kloten", "weatherCondition": "n/a", "windDirection": 90, "hectoPascAltimeter": 1021, "windSpeed": "03", "lat": 47.483333333333334}, "id": 72}]
[{"weatherObservation": {"elevation": 432, "lng": 8.533333333333333, "observation": "LSZH 281820Z 09003KT 9999 BKN040 08/04 Q1021 NOSIG", "ICAO": "LSZH", "clouds": "broken clouds", "dewPoint": "4", "cloudsCode": "BKN", "datetime": "2024-02-28 18:20:00", "countryCode": "CH", "temperature": "8", "humidity": 75, "stationName": "Zurich-Kloten", "weatherCondition": "n/a", "windDirection": 90, "hectoPascAltimeter": 1021, "windSpeed": "03", "lat": 47.483333333333334}, "id": 16}]
[{"weatherObservation": {"elevation": 432, "lng": 8.533333333333333, "observation": "LSZH 281820Z 09003KT 9999 BKN040 08/04 Q1021 NOSIG", "ICAO": "LSZH", "clouds": "broken clouds", "dewPoint": "4", "cloudsCode": "BKN", "datetime": "2024-02-28 18:20:00", "countryCode": "CH", "temperature": "8", "humidity": 75, "stationName": "Zurich-Kloten", "weatherCondition": "n/a", "windDirection": 90, "hectoPascAltimeter": 1021, "windSpeed": "03", "lat": 47.483333333333334}, "id": 70}]
[{"weatherObservation": {"elevation": 432, "lng": 8.533333333333333, "observation": "LSZH 281820Z 09003KT 9999 BKN040 08/04 Q1021 NOSIG", "ICAO": "LSZH", "clouds": "broken clouds", "dewPoint": "4", "cloudsCode": "BKN", "datetime": "2024-02-28 18:20:00", "countryCode": "CH", "temperature": "8", "humidity": 75, "stationName": "Zurich-Kloten", "weatherCondition": "n/a", "windDirection": 90, "hectoPascAltimeter": 1021, "windSpeed": "03", "lat": 47.483333333333334}, "id": 68}]
[{"weatherObservation": {"elevation": 432, "lng": 8.533333333333333, "observation": "LSZH 281820Z 09003KT 9999 BKN040 08/04 Q1021 NOSIG", "ICAO": "LSZH", "clouds": "broken clouds", "dewPoint": "4", "cloudsCode": "BKN", "datetime": "2024-02-28 18:20:00", "countryCode": "CH", "temperature": "8", "humidity": 75, "stationName": "Zurich-Kloten", "weatherCondition": "n/a", "windDirection": 90, "hectoPascAltimeter": 1021, "windSpeed": "03", "lat": 47.483333333333334}, "id": 71}]
[{"weatherObservation": {"elevation": 432, "lng": 8.533333333333333, "observation": "LSZH 281820Z 09003KT 9999 BKN040 08/04 Q1021 NOSIG", "ICAO": "LSZH", "clouds": "broken clouds", "dewPoint": "4", "cloudsCode": "BKN", "datetime": "2024-02-28 18:20:00", "countryCode": "CH", "temperature": "8", "humidity": 75, "stationName": "Zurich-Kloten", "weatherCondition": "n/a", "windDirection": 90, "hectoPascAltimeter": 1021, "windSpeed": "03", "lat": 47.483333333333334}, "id": 11}]
[{"weatherObservation": {"elevation": 432, "lng": 8.533333333333333, "observation": "LSZH 281820Z 09003KT 9999 BKN040 08/04 Q1021 NOSIG", "ICAO": "LSZH", "clouds": "broken clouds", "dewPoint": "4", "cloudsCode": "BKN", "datetime": "2024-02-28 18:20:00", "countryCode": "CH", "temperature": "8", "humidity": 75, "stationName": "Zurich-Kloten", "weatherCondition": "n/a", "windDirection": 90, "hectoPascAltimeter": 1021, "windSpeed": "03", "lat": 47.483333333333334}, "id": 69}]
[{"weatherObservation": {"elevation": 432, "lng": 8.533333333333333, "observation": "LSZH 281820Z 09003KT 9999 BKN040 08/04 Q1021 NOSIG", "ICAO": "LSZH", "clouds": "broken clouds", "dewPoint": "4", "cloudsCode": "BKN", "datetime": "2024-02-28 18:20:00", "countryCode": "CH", "temperature": "8", "humidity": 75, "stationName": "Zurich-Kloten", "weatherCondition": "n/a", "windDirection": 90, "hectoPascAltimeter": 1021, "windSpeed": "03", "lat": 47.483333333333334}, "id": 5}]
[{"weatherObservation": {"elevation": 432, "lng": 8.533333333333333, "observation": "LSZH 281820Z 09003KT 9999 BKN040 08/04 Q1021 NOSIG", "ICAO": "LSZH", "clouds": "broken clouds", "dewPoint": "4", "cloudsCode": "BKN", "datetime": "2024-02-28 18:20:00", "countryCode": "CH", "temperature": "8", "humidity": 75, "stationName": "Zurich-Kloten", "weatherCondition": "n/a", "windDirection": 90, "hectoPascAltimeter": 1021, "windSpeed": "03", "lat": 47.483333333333334}, "id": 27}]
[{"weatherObservation": {"elevation": 432, "lng": 8.533333333333333, "observation": "LSZH 281820Z 09003KT 9999 BKN040 08/04 Q1021 NOSIG", "ICAO": "LSZH", "clouds": "broken clouds", "dewPoint": "4", "cloudsCode": "BKN", "datetime": "2024-02-28 18:20:00", "countryCode": "CH", "temperature": "8", "humidity": 75, "stationName": "Zurich-Kloten", "weatherCondition": "n/a", "windDirection": 90, "hectoPascAltimeter": 1021, "windSpeed": "03", "lat": 47.483333333333334}, "id": 26}]
[{"weatherObservation": {"elevation": 432, "lng": 8.533333333333333, "observation": "LSZH 281820Z 09003KT 9999 BKN040 08/04 Q1021 NOSIG", "ICAO": "LSZH", "clouds": "broken clouds", "dewPoint": "4", "cloudsCode": "BKN", "datetime": "2024-02-28 18:20:00", "countryCode": "CH", "temperature": "8", "humidity": 75, "stationName": "Zurich-Kloten", "weatherCondition": "n/a", "windDirection": 90, "hectoPascAltimeter": 1021, "windSpeed": "03", "lat": 47.483333333333334}, "id": 24}]
