[{"weatherObservation": {"elevation": 432, "lng": 8.533333333333333, "observation": "LSZH 271720Z 14011KT CAVOK 18/M01 Q1007 NOSIG", "ICAO": "LSZH", "clouds": "clouds and visibility OK", "dewPoint": "-1", "cloudsCode": "CAVOK", "datetime": "2024-04-27 17:20:00", "countryCode": "CH", "temperature": "18", "humidity": 27, "stationName": "Zurich-Kloten", "weatherCondition": "n/a", "windDirection": 140, "hectoPascAltimeter": 1007, "windSpeed": "11", "lat": 47.483333333333334}, "id": 72}]
[{"weatherObservation": {"elevation": 432, "lng": 8.533333333333333, "observation": "LSZH 271720Z 14011KT CAVOK 18/M01 Q1007 NOSIG", "ICAO": "LSZH", "clouds": "clouds and visibility OK", "dewPoint": "-1", "cloudsCode": "CAVOK", "datetime": "2024-04-27 17:20:00", "countryCode": "CH", "temperature": "18", "humidity": 27, "stationName": "Zurich-Kloten", "weatherCondition": "n/a", "windDirection": 140, "hectoPascAltimeter": 1007, "windSpeed": "11", "lat": 47.483333333333334}, "id": 54}]
[{"weatherObservation": {"elevation": 432, "lng": 8.533333333333333, "observation": "LSZH 271720Z 14011KT CAVOK 18/M01 Q1007 NOSIG", "ICAO": "LSZH", "clouds": "clouds and visibility OK", "dewPoint": "-1", "cloudsCode": "CAVOK", "datetime": "2024-04-27 17:20:00", "countryCode": "CH", "temperature": "18", "humidity": 27, "stationName": "Zurich-Kloten", "weatherCondition": "n/a", "windDirection": 140, "hectoPascAltimeter": 1007, "windSpeed": "11", "lat": 47.483333333333334}, "id": 55}]
[{"weatherObservation": {"elevation": 432, "lng": 8.533333333333333, "observation": "LSZH 271720Z 14011KT CAVOK 18/M01 Q1007 NOSIG", "ICAO": "LSZH", "clouds": "clouds and visibility OK", "dewPoint": "-1", "cloudsCode": "CAVOK", "datetime": "2024-04-27 17:20:00", "countryCode": "CH", "temperature": "18", "humidity": 27, "stationName": "Zurich-Kloten", "weatherCondition": "n/a", "windDirection": 140, "hectoPascAltimeter": 1007, "windSpeed": "11", "lat": 47.483333333333334}, "id": 52}]
[{"weatherObservation": {"elevation": 432, "lng": 8.533333333333333, "observation": "LSZH 271720Z 14011KT CAVOK 18/M01 Q1007 NOSIG", "ICAO": "LSZH", "clouds": "clouds and visibility OK", "dewPoint": "-1", "cloudsCode": "CAVOK", "datetime": "2024-04-27 17:20:00", "countryCode": "CH", "temperature": "18", "humidity": 27, "stationName": "Zurich-Kloten", "weatherCondition": "n/a", "windDirection": 140, "hectoPascAltimeter": 1007, "windSpeed": "11", "lat": 47.483333333333334}, "id": 130}]
[{"weatherObservation": {"elevation": 432, "lng": 8.533333333333333, "observation": "LSZH 271720Z 14011KT CAVOK 18/M01 Q1007 NOSIG", "ICAO": "LSZH", "clouds": "clouds and visibility OK", "dewPoint": "-1", "cloudsCode": "CAVOK", "datetime": "2024-04-27 17:20:00", "countryCode": "CH", "temperature": "18", "humidity": 27, "stationName": "Zurich-Kloten", "weatherCondition": "n/a", "windDirection": 140, "hectoPascAltimeter": 1007, "windSpeed": "11", "lat": 47.483333333333334}, "id": 53}]
[{"weatherObservation": {"elevation": 432, "lng": 8.533333333333333, "observation": "LSZH 271720Z 14011KT CAVOK 18/M01 Q1007 NOSIG", "ICAO": "LSZH", "clouds": "clouds and visibility OK", "dewPoint": "-1", "cloudsCode": "CAVOK", "datetime": "2024-04-27 17:20:00", "countryCode": "CH", "temperature": "18", "humidity": 27, "stationName": "Zurich-Kloten", "weatherCondition": "n/a", "windDirection": 140, "hectoPascAltimeter": 1007, "windSpeed": "11", "lat": 47.483333333333334}, "id": 70}]
[{"weatherObservation": {"elevation": 432, "lng": 8.533333333333333, "observation": "LSZH 271720Z 14011KT CAVOK 18/M01 Q1007 NOSIG", "ICAO": "LSZH", "clouds": "clouds and visibility OK", "dewPoint": "-1", "cloudsCode": "CAVOK", "datetime": "2024-04-27 17:20:00", "countryCode": "CH", "temperature": "18", "humidity": 27, "stationName": "Zurich-Kloten", "weatherCondition": "n/a", "windDirection": 140, "hectoPascAltimeter": 1007, "windSpeed": "11", "lat": 47.483333333333334}, "id": 98}]
[{"weatherObservation": {"elevation": 432, "lng": 8.533333333333333, "observation": "LSZH 271720Z 14011KT CAVOK 18/M01 Q1007 NOSIG", "ICAO": "LSZH", "clouds": "clouds and visibility OK", "dewPoint": "-1", "cloudsCode": "CAVOK", "datetime": "2024-04-27 17:20:00", "countryCode": "CH", "temperature": "18", "humidity": 27, "stationName": "Zurich-Kloten", "weatherCondition": "n/a", "windDirection": 140, "hectoPascAltimeter": 1007, "windSpeed": "11", "lat": 47.483333333333334}, "id": 56}]
[{"weatherObservation": {"elevation": 432, "lng": 8.533333333333333, "observation": "LSZH 271720Z 14011KT CAVOK 18/M01 Q1007 NOSIG", "ICAO": "LSZH", "clouds": "clouds and visibility OK", "dewPoint": "-1", "cloudsCode": "CAVOK", "datetime": "2024-04-27 17:20:00", "countryCode": "CH", "temperature": "18", "humidity": 27, "stationName": "Zurich-Kloten", "weatherCondition": "n/a", "windDirection": 140, "hectoPascAltimeter": 1007, "windSpeed": "11", "lat": 47.483333333333334}, "id": 103}]
[{"weatherObservation": {"elevation": 432, "lng": 8.533333333333333, "observation": "LSZH 271720Z 14011KT CAVOK 18/M01 Q1007 NOSIG", "ICAO": "LSZH", "clouds": "clouds and visibility OK", "dewPoint": "-1", "cloudsCode": "CAVOK", "datetime": "2024-04-27 17:20:00", "countryCode": "CH", "temperature": "18", "humidity": 27, "stationName": "Zurich-Kloten", "weatherCondition": "n/a", "windDirection": 140, "hectoPascAltimeter": 1007, "windSpeed": "11", "lat": 47.483333333333334}, "id": 625}]
[{"weatherObservation": {"elevation": 432, "lng": 8.533333333333333, "observation": "LSZH 271720Z 14011KT CAVOK 18/M01 Q1007 NOSIG", "ICAO": "LSZH", "clouds": "clouds and visibility OK", "dewPoint": "-1", "cloudsCode": "CAVOK", "datetime": "2024-04-27 17:20:00", "countryCode": "CH", "temperature": "18", "humidity": 27, "stationName": "Zurich-Kloten", "weatherCondition": "n/a", "windDirection": 140, "hectoPascAltimeter": 1007, "windSpeed": "11", "lat": 47.483333333333334}, "id": 124}]
[{"weatherObservation": {"elevation": 432, "lng": 8.533333333333333, "observation": "LSZH 271720Z 14011KT CAVOK 18/M01 Q1007 NOSIG", "ICAO": "LSZH", "clouds": "clouds and visibility OK", "dewPoint": "-1", "cloudsCode": "CAVOK", "datetime": "2024-04-27 17:20:00", "countryCode": "CH", "temperature": "18", "humidity": 27, "stationName": "Zurich-Kloten", "weatherCondition": "n/a", "windDirection": 140, "hectoPascAltimeter": 1007, "windSpeed": "11", "lat": 47.483333333333334}, "id": 128}]
[{"weatherObservation": {"elevation": 432, "lng": 8.533333333333333, "observation": "LSZH 271720Z 14011KT CAVOK 18/M01 Q1007 NOSIG", "ICAO": "LSZH", "clouds": "clouds and visibility OK", "dewPoint": "-1", "cloudsCode": "CAVOK", "datetime": "2024-04-27 17:20:00", "countryCode": "CH", "temperature": "18", "humidity": 27, "stationName": "Zurich-Kloten", "weatherCondition": "n/a", "windDirection": 140, "hectoPascAltimeter": 1007, "windSpeed": "11", "lat": 47.483333333333334}, "id": 101}]
[{"weatherObservation": {"elevation": 432, "lng": 8.533333333333333, "observation": "LSZH 271720Z 14011KT CAVOK 18/M01 Q1007 NOSIG", "ICAO": "LSZH", "clouds": "clouds and visibility OK", "dewPoint": "-1", "cloudsCode": "CAVOK", "datetime": "2024-04-27 17:20:00", "countryCode": "CH", "temperature": "18", "humidity": 27, "stationName": "Zurich-Kloten", "weatherCondition": "n/a", "windDirection": 140, "hectoPascAltimeter": 1007, "windSpeed": "11", "lat": 47.483333333333334}, "id": 51}]
[{"weatherObservation": {"elevation": 432, "lng": 8.533333333333333, "observation": "LSZH 271720Z 14011KT CAVOK 18/M01 Q1007 NOSIG", "ICAO": "LSZH", "clouds": "clouds and visibility OK", "dewPoint": "-1", "cloudsCode": "CAVOK", "datetime": "2024-04-27 17:20:00", "countryCode": "CH", "temperature": "18", "humidity": 27, "stationName": "Zurich-Kloten", "weatherCondition": "n/a", "windDirection": 140, "hectoPascAltimeter": 1007, "windSpeed": "11", "lat": 47.483333333333334}, "id": 126}]
[{"weatherObservation": {"elevation": 432, "lng": 8.533333333333333, "observation": "LSZH 271720Z 14011KT CAVOK 18/M01 Q1007 NOSIG", "ICAO": "LSZH", "clouds": "clouds and visibility OK", "dewPoint": "-1", "cloudsCode": "CAVOK", "datetime": "2024-04-27 17:20:00", "countryCode": "CH", "temperature": "18", "humidity": 27, "stationName": "Zurich-Kloten", "weatherCondition": "n/a", "windDirection": 140, "hectoPascAltimeter": 1007, "windSpeed": "11", "lat": 47.483333333333334}, "id": 59}]
[{"weatherObservation": {"elevation": 432, "lng": 8.533333333333333, "observation": "LSZH 271720Z 14011KT CAVOK 18/M01 Q1007 NOSIG", "ICAO": "LSZH", "clouds": "clouds and visibility OK", "dewPoint": "-1", "cloudsCode": "CAVOK", "datetime": "2024-04-27 17:20:00", "countryCode": "CH", "temperature": "18", "humidity": 27, "stationName": "Zurich-Kloten", "weatherCondition": "n/a", "windDirection": 140, "hectoPascAltimeter": 1007, "windSpeed": "11", "lat": 47.483333333333334}, "id": 73}]
[{"weatherObservation": {"elevation": 432, "lng": 8.533333333333333, "observation": "LSZH 271720Z 14011KT CAVOK 18/M01 Q1007 NOSIG", "ICAO": "LSZH", "clouds": "clouds and visibility OK", "dewPoint": "-1", "cloudsCode": "CAVOK", "datetime": "2024-04-27 17:20:00", "countryCode": "CH", "temperature": "18", "humidity": 27, "stationName": "Zurich-Kloten", "weatherCondition": "n/a", "windDirection": 140, "hectoPascAltimeter": 1007, "windSpeed": "11", "lat": 47.483333333333334}, "id": 108}]
[{"weatherObservation": {"elevation": 432, "lng": 8.533333333333333, "observation": "LSZH 271720Z 14011KT CAVOK 18/M01 Q1007 NOSIG", "ICAO": "LSZH", "clouds": "clouds and visibility OK", "dewPoint": "-1", "cloudsCode": "CAVOK", "datetime": "2024-04-27 17:20:00", "countryCode": "CH", "temperature": "18", "humidity": 27, "stationName": "Zurich-Kloten", "weatherCondition": "n/a", "windDirection": 140, "hectoPascAltimeter": 1007, "windSpeed": "11", "lat": 47.483333333333334}, "id": 125}]
[{"weatherObservation": {"elevation": 432, "lng": 8.533333333333333, "observation": "LSZH 271720Z 14011KT CAVOK 18/M01 Q1007 NOSIG", "ICAO": "LSZH", "clouds": "clouds and visibility OK", "dewPoint": "-1", "cloudsCode": "CAVOK", "datetime": "2024-04-27 17:20:00", "countryCode": "CH", "temperature": "18", "humidity": 27, "stationName": "Zurich-Kloten", "weatherCondition": "n/a", "windDirection": 140, "hectoPascAltimeter": 1007, "windSpeed": "11", "lat": 47.483333333333334}, "id": 131}]
[{"weatherObservation": {"elevation": 432, "lng": 8.533333333333333, "observation": "LSZH 271720Z 14011KT CAVOK 18/M01 Q1007 NOSIG", "ICAO": "LSZH", "clouds": "clouds and visibility OK", "dewPoint": "-1", "cloudsCode": "CAVOK", "datetime": "2024-04-27 17:20:00", "countryCode": "CH", "temperature": "18", "humidity": 27, "stationName": "Zurich-Kloten", "weatherCondition": "n/a", "windDirection": 140, "hectoPascAltimeter": 1007, "windSpeed": "11", "lat": 47.483333333333334}, "id": 129}]
[{"weatherObservation": {"elevation": 432, "lng": 8.533333333333333, "observation": "LSZH 271720Z 14011KT CAVOK 18/M01 Q1007 NOSIG", "ICAO": "LSZH", "clouds": "clouds and visibility OK", "dewPoint": "-1", "cloudsCode": "CAVOK", "datetime": "2024-04-27 17:20:00", "countryCode": "CH", "temperature": "18", "humidity": 27, "stationName": "Zurich-Kloten", "weatherCondition": "n/a", "windDirection": 140, "hectoPascAltimeter": 1007, "windSpeed": "11", "lat": 47.483333333333334}, "id": 120}]
[{"weatherObservation": {"elevation": 432, "lng": 8.533333333333333, "observation": "LSZH 271720Z 14011KT CAVOK 18/M01 Q1007 NOSIG", "ICAO": "LSZH", "clouds": "clouds and visibility OK", "dewPoint": "-1", "cloudsCode": "CAVOK", "datetime": "2024-04-27 17:20:00", "countryCode": "CH", "temperature": "18", "humidity": 27, "stationName": "Zurich-Kloten", "weatherCondition": "n/a", "windDirection": 140, "hectoPascAltimeter": 1007, "windSpeed": "11", "lat": 47.483333333333334}, "id": 50}]
[{"weatherObservation": {"elevation": 432, "lng": 8.533333333333333, "observation": "LSZH 271720Z 14011KT CAVOK 18/M01 Q1007 NOSIG", "ICAO": "LSZH", "clouds": "clouds and visibility OK", "dewPoint": "-1", "cloudsCode": "CAVOK", "datetime": "2024-04-27 17:20:00", "countryCode": "CH", "temperature": "18", "humidity": 27, "stationName": "Zurich-Kloten", "weatherCondition": "n/a", "windDirection": 140, "hectoPascAltimeter": 1007, "windSpeed": "11", "lat": 47.483333333333334}, "id": 122}]
[{"weatherObservation": {"elevation": 432, "lng": 8.533333333333333, "observation": "LSZH 271720Z 14011KT CAVOK 18/M01 Q1007 NOSIG", "ICAO": "LSZH", "clouds": "clouds and visibility OK", "dewPoint": "-1", "cloudsCode": "CAVOK", "datetime": "2024-04-27 17:20:00", "countryCode": "CH", "temperature": "18", "humidity": 27, "stationName": "Zurich-Kloten", "weatherCondition": "n/a", "windDirection": 140, "hectoPascAltimeter": 1007, "windSpeed": "11", "lat": 47.483333333333334}, "id": 121}]
[{"weatherObservation": {"elevation": 432, "lng": 8.533333333333333, "observation": "LSZH 271720Z 14011KT CAVOK 18/M01 Q1007 NOSIG", "ICAO": "LSZH", "clouds": "clouds and visibility OK", "dewPoint": "-1", "cloudsCode": "CAVOK", "datetime": "2024-04-27 17:20:00", "countryCode": "CH", "temperature": "18", "humidity": 27, "stationName": "Zurich-Kloten", "weatherCondition": "n/a", "windDirection": 140, "hectoPascAltimeter": 1007, "windSpeed": "11", "lat": 47.483333333333334}, "id": 626}]
[{"weatherObservation": {"elevation": 432, "lng": 8.533333333333333, "observation": "LSZH 271720Z 14011KT CAVOK 18/M01 Q1007 NOSIG", "ICAO": "LSZH", "clouds": "clouds and visibility OK", "dewPoint": "-1", "cloudsCode": "CAVOK", "datetime": "2024-04-27 17:20:00", "countryCode": "CH", "temperature": "18", "humidity": 27, "stationName": "Zurich-Kloten", "weatherCondition": "n/a", "windDirection": 140, "hectoPascAltimeter": 1007, "windSpeed": "11", "lat": 47.483333333333334}, "id": 110}]
[{"weatherObservation": {"elevation": 432, "lng": 8.533333333333333, "observation": "LSZH 271720Z 14011KT CAVOK 18/M01 Q1007 NOSIG", "ICAO": "LSZH", "clouds": "clouds and visibility OK", "dewPoint": "-1", "cloudsCode": "CAVOK", "datetime": "2024-04-27 17:20:00", "countryCode": "CH", "temperature": "18", "humidity": 27, "stationName": "Zurich-Kloten", "weatherCondition": "n/a", "windDirection": 140, "hectoPascAltimeter": 1007, "windSpeed": "11", "lat": 47.483333333333334}, "id": 116}]
[{"weatherObservation": {"elevation": 432, "lng": 8.533333333333333, "observation": "LSZH 271720Z 14011KT CAVOK 18/M01 Q1007 NOSIG", "ICAO": "LSZH", "clouds": "clouds and visibility OK", "dewPoint": "-1", "cloudsCode": "CAVOK", "datetime": "2024-04-27 17:20:00", "countryCode": "CH", "temperature": "18", "humidity": 27, "stationName": "Zurich-Kloten", "weatherCondition": "n/a", "windDirection": 140, "hectoPascAltimeter": 1007, "windSpeed": "11", "lat": 47.483333333333334}, "id": 114}]
[{"weatherObservation": {"elevation": 432, "lng": 8.533333333333333, "observation": "LSZH 271720Z 14011KT CAVOK 18/M01 Q1007 NOSIG", "ICAO": "LSZH", "clouds": "clouds and visibility OK", "dewPoint": "-1", "cloudsCode": "CAVOK", "datetime": "2024-04-27 17:20:00", "countryCode": "CH", "temperature": "18", "humidity": 27, "stationName": "Zurich-Kloten", "weatherCondition": "n/a", "windDirection": 140, "hectoPascAltimeter": 1007, "windSpeed": "11", "lat": 47.483333333333334}, "id": 115}]
[{"weatherObservation": {"elevation": 432, "lng": 8.533333333333333, "observation": "LSZH 271720Z 14011KT CAVOK 18/M01 Q1007 NOSIG", "ICAO": "LSZH", "clouds": "clouds and visibility OK", "dewPoint": "-1", "cloudsCode": "CAVOK", "datetime": "2024-04-27 17:20:00", "countryCode": "CH", "temperature": "18", "humidity": 27, "stationName": "Zurich-Kloten", "weatherCondition": "n/a", "windDirection": 140, "hectoPascAltimeter": 1007, "windSpeed": "11", "lat": 47.483333333333334}, "id": 119}]
[{"weatherObservation": {"elevation": 432, "lng": 8.533333333333333, "observation": "LSZH 271720Z 14011KT CAVOK 18/M01 Q1007 NOSIG", "ICAO": "LSZH", "clouds": "clouds and visibility OK", "dewPoint": "-1", "cloudsCode": "CAVOK", "datetime": "2024-04-27 17:20:00", "countryCode": "CH", "temperature": "18", "humidity": 27, "stationName": "Zurich-Kloten", "weatherCondition": "n/a", "windDirection": 140, "hectoPascAltimeter": 1007, "windSpeed": "11", "lat": 47.483333333333334}, "id": 117}]
[{"weatherObservation": {"elevation": 432, "lng": 8.533333333333333, "observation": "LSZH 271720Z 14011KT CAVOK 18/M01 Q1007 NOSIG", "ICAO": "LSZH", "clouds": "clouds and visibility OK", "dewPoint": "-1", "cloudsCode": "CAVOK", "datetime": "2024-04-27 17:20:00", "countryCode": "CH", "temperature": "18", "humidity": 27, "stationName": "Zurich-Kloten", "weatherCondition": "n/a", "windDirection": 140, "hectoPascAltimeter": 1007, "windSpeed": "11", "lat": 47.483333333333334}, "id": 111}]
[{"weatherObservation": {"elevation": 432, "lng": 8.533333333333333, "observation": "LSZH 271720Z 14011KT CAVOK 18/M01 Q1007 NOSIG", "ICAO": "LSZH", "clouds": "clouds and visibility OK", "dewPoint": "-1", "cloudsCode": "CAVOK", "datetime": "2024-04-27 17:20:00", "countryCode": "CH", "temperature": "18", "humidity": 27, "stationName": "Zurich-Kloten", "weatherCondition": "n/a", "windDirection": 140, "hectoPascAltimeter": 1007, "windSpeed": "11", "lat": 47.483333333333334}, "id": 102}]
[{"weatherObservation": {"elevation": 432, "lng": 8.533333333333333, "observation": "LSZH 271720Z 14011KT CAVOK 18/M01 Q1007 NOSIG", "ICAO": "LSZH", "clouds": "clouds and visibility OK", "dewPoint": "-1", "cloudsCode": "CAVOK", "datetime": "2024-04-27 17:20:00", "countryCode": "CH", "temperature": "18", "humidity": 27, "stationName": "Zurich-Kloten", "weatherCondition": "n/a", "windDirection": 140, "hectoPascAltimeter": 1007, "windSpeed": "11", "lat": 47.483333333333334}, "id": 112}]
[{"weatherObservation": {"elevation": 432, "lng": 8.533333333333333, "observation": "LSZH 271720Z 14011KT CAVOK 18/M01 Q1007 NOSIG", "ICAO": "LSZH", "clouds": "clouds and visibility OK", "dewPoint": "-1", "cloudsCode": "CAVOK", "datetime": "2024-04-27 17:20:00", "countryCode": "CH", "temperature": "18", "humidity": 27, "stationName": "Zurich-Kloten", "weatherCondition": "n/a", "windDirection": 140, "hectoPascAltimeter": 1007, "windSpeed": "11", "lat": 47.483333333333334}, "id": 107}]
[{"weatherObservation": {"elevation": 432, "lng": 8.533333333333333, "observation": "LSZH 271720Z 14011KT CAVOK 18/M01 Q1007 NOSIG", "ICAO": "LSZH", "clouds": "clouds and visibility OK", "dewPoint": "-1", "cloudsCode": "CAVOK", "datetime": "2024-04-27 17:20:00", "countryCode": "CH", "temperature": "18", "humidity": 27, "stationName": "Zurich-Kloten", "weatherCondition": "n/a", "windDirection": 140, "hectoPascAltimeter": 1007, "windSpeed": "11", "lat": 47.483333333333334}, "id": 106}]
[{"weatherObservation": {"elevation": 432, "lng": 8.533333333333333, "observation": "LSZH 271720Z 14011KT CAVOK 18/M01 Q1007 NOSIG", "ICAO": "LSZH", "clouds": "clouds and visibility OK", "dewPoint": "-1", "cloudsCode": "CAVOK", "datetime": "2024-04-27 17:20:00", "countryCode": "CH", "temperature": "18", "humidity": 27, "stationName": "Zurich-Kloten", "weatherCondition": "n/a", "windDirection": 140, "hectoPascAltimeter": 1007, "windSpeed": "11", "lat": 47.483333333333334}, "id": 113}]
[{"weatherObservation": {"elevation": 432, "lng": 8.533333333333333, "observation": "LSZH 271720Z 14011KT CAVOK 18/M01 Q1007 NOSIG", "ICAO": "LSZH", "clouds": "clouds and visibility OK", "dewPoint": "-1", "cloudsCode": "CAVOK", "datetime": "2024-04-27 17:20:00", "countryCode": "CH", "temperature": "18", "humidity": 27, "stationName": "Zurich-Kloten", "weatherCondition": "n/a", "windDirection": 140, "hectoPascAltimeter": 1007, "windSpeed": "11", "lat": 47.483333333333334}, "id": 99}]
[{"weatherObservation": {"elevation": 432, "lng": 8.533333333333333, "observation": "LSZH 271720Z 14011KT CAVOK 18/M01 Q1007 NOSIG", "ICAO": "LSZH", "clouds": "clouds and visibility OK", "dewPoint": "-1", "cloudsCode": "CAVOK", "datetime": "2024-04-27 17:20:00", "countryCode": "CH", "temperature": "18", "humidity": 27, "stationName": "Zurich-Kloten", "weatherCondition": "n/a", "windDirection": 140, "hectoPascAltimeter": 1007, "windSpeed": "11", "lat": 47.483333333333334}, "id": 225}]
[{"weatherObservation": {"elevation": 432, "lng": 8.533333333333333, "observation": "LSZH 271720Z 14011KT CAVOK 18/M01 Q1007 NOSIG", "ICAO": "LSZH", "clouds": "clouds and visibility OK", "dewPoint": "-1", "cloudsCode": "CAVOK", "datetime": "2024-04-27 17:20:00", "countryCode": "CH", "temperature": "18", "humidity": 27, "stationName": "Zurich-Kloten", "weatherCondition": "n/a", "windDirection": 140, "hectoPascAltimeter": 1007, "windSpeed": "11", "lat": 47.483333333333334}, "id": 627}]
[{"weatherObservation": {"elevation": 432, "lng": 8.533333333333333, "observation": "LSZH 271720Z 14011KT CAVOK 18/M01 Q1007 NOSIG", "ICAO": "LSZH", "clouds": "clouds and visibility OK", "dewPoint": "-1", "cloudsCode": "CAVOK", "datetime": "2024-04-27 17:20:00", "countryCode": "CH", "temperature": "18", "humidity": 27, "stationName": "Zurich-Kloten", "weatherCondition": "n/a", "windDirection": 140, "hectoPascAltimeter": 1007, "windSpeed": "11", "lat": 47.483333333333334}, "id": 628}]
[{"weatherObservation": {"elevation": 432, "lng": 8.533333333333333, "observation": "LSZH 271720Z 14011KT CAVOK 18/M01 Q1007 NOSIG", "ICAO": "LSZH", "clouds": "clouds and visibility OK", "dewPoint": "-1", "cloudsCode": "CAVOK", "datetime": "2024-04-27 17:20:00", "countryCode": "CH", "temperature": "18", "humidity": 27, "stationName": "Zurich-Kloten", "weatherCondition": "n/a", "windDirection": 140, "hectoPascAltimeter": 1007, "windSpeed": "11", "lat": 47.483333333333334}, "id": 8}]
[{"weatherObservation": {"elevation": 432, "lng": 8.533333333333333, "observation": "LSZH 271720Z 14011KT CAVOK 18/M01 Q1007 NOSIG", "ICAO": "LSZH", "clouds": "clouds and visibility OK", "dewPoint": "-1", "cloudsCode": "CAVOK", "datetime": "2024-04-27 17:20:00", "countryCode": "CH", "temperature": "18", "humidity": 27, "stationName": "Zurich-Kloten", "weatherCondition": "n/a", "windDirection": 140, "hectoPascAltimeter": 1007, "windSpeed": "11", "lat": 47.483333333333334}, "id": 20}]
[{"weatherObservation": {"elevation": 432, "lng": 8.533333333333333, "observation": "LSZH 271720Z 14011KT CAVOK 18/M01 Q1007 NOSIG", "ICAO": "LSZH", "clouds": "clouds and visibility OK", "dewPoint": "-1", "cloudsCode": "CAVOK", "datetime": "2024-04-27 17:20:00", "countryCode": "CH", "temperature": "18", "humidity": 27, "stationName": "Zurich-Kloten", "weatherCondition": "n/a", "windDirection": 140, "hectoPascAltimeter": 1007, "windSpeed": "11", "lat": 47.483333333333334}, "id": 5}]
[{"weatherObservation": {"elevation": 432, "lng": 8.533333333333333, "observation": "LSZH 271720Z 14011KT CAVOK 18/M01 Q1007 NOSIG", "ICAO": "LSZH", "clouds": "clouds and visibility OK", "dewPoint": "-1", "cloudsCode": "CAVOK", "datetime": "2024-04-27 17:20:00", "countryCode": "CH", "temperature": "18", "humidity": 27, "stationName": "Zurich-Kloten", "weatherCondition": "n/a", "windDirection": 140, "hectoPascAltimeter": 1007, "windSpeed": "11", "lat": 47.483333333333334}, "id": 11}]
[{"weatherObservation": {"elevation": 432, "lng": 8.533333333333333, "observation": "LSZH 271720Z 14011KT CAVOK 18/M01 Q1007 NOSIG", "ICAO": "LSZH", "clouds": "clouds and visibility OK", "dewPoint": "-1", "cloudsCode": "CAVOK", "datetime": "2024-04-27 17:20:00", "countryCode": "CH", "temperature": "18", "humidity": 27, "stationName": "Zurich-Kloten", "weatherCondition": "n/a", "windDirection": 140, "hectoPascAltimeter": 1007, "windSpeed": "11", "lat": 47.483333333333334}, "id": 19}]
[{"weatherObservation": {"elevation": 432, "lng": 8.533333333333333, "observation": "LSZH 271720Z 14011KT CAVOK 18/M01 Q1007 NOSIG", "ICAO": "LSZH", "clouds": "clouds and visibility OK", "dewPoint": "-1", "cloudsCode": "CAVOK", "datetime": "2024-04-27 17:20:00", "countryCode": "CH", "temperature": "18", "humidity": 27, "stationName": "Zurich-Kloten", "weatherCondition": "n/a", "windDirection": 140, "hectoPascAltimeter": 1007, "windSpeed": "11", "lat": 47.483333333333334}, "id": 47}]
[{"weatherObservation": {"elevation": 432, "lng": 8.533333333333333, "observation": "LSZH 271720Z 14011KT CAVOK 18/M01 Q1007 NOSIG", "ICAO": "LSZH", "clouds": "clouds and visibility OK", "dewPoint": "-1", "cloudsCode": "CAVOK", "datetime": "2024-04-27 17:20:00", "countryCode": "CH", "temperature": "18", "humidity": 27, "stationName": "Zurich-Kloten", "weatherCondition": "n/a", "windDirection": 140, "hectoPascAltimeter": 1007, "windSpeed": "11", "lat": 47.483333333333334}, "id": 2}]
[{"weatherObservation": {"elevation": 432, "lng": 8.533333333333333, "observation": "LSZH 271720Z 14011KT CAVOK 18/M01 Q1007 NOSIG", "ICAO": "LSZH", "clouds": "clouds and visibility OK", "dewPoint": "-1", "cloudsCode": "CAVOK", "datetime": "2024-04-27 17:20:00", "countryCode": "CH", "temperature": "18", "humidity": 27, "stationName": "Zurich-Kloten", "weatherCondition": "n/a", "windDirection": 140, "hectoPascAltimeter": 1007, "windSpeed": "11", "lat": 47.483333333333334}, "id": 18}]
[{"weatherObservation": {"elevation": 432, "lng": 8.533333333333333, "observation": "LSZH 271720Z 14011KT CAVOK 18/M01 Q1007 NOSIG", "ICAO": "LSZH", "clouds": "clouds and visibility OK", "dewPoint": "-1", "cloudsCode": "CAVOK", "datetime": "2024-04-27 17:20:00", "countryCode": "CH", "temperature": "18", "humidity": 27, "stationName": "Zurich-Kloten", "weatherCondition": "n/a", "windDirection": 140, "hectoPascAltimeter": 1007, "windSpeed": "11", "lat": 47.483333333333334}, "id": 34}]
[{"weatherObservation": {"elevation": 432, "lng": 8.533333333333333, "observation": "LSZH 271720Z 14011KT CAVOK 18/M01 Q1007 NOSIG", "ICAO": "LSZH", "clouds": "clouds and visibility OK", "dewPoint": "-1", "cloudsCode": "CAVOK", "datetime": "2024-04-27 17:20:00", "countryCode": "CH", "temperature": "18", "humidity": 27, "stationName": "Zurich-Kloten", "weatherCondition": "n/a", "windDirection": 140, "hectoPascAltimeter": 1007, "windSpeed": "11", "lat": 47.483333333333334}, "id": 40}]
[{"weatherObservation": {"elevation": 432, "lng": 8.533333333333333, "observation": "LSZH 271720Z 14011KT CAVOK 18/M01 Q1007 NOSIG", "ICAO": "LSZH", "clouds": "clouds and visibility OK", "dewPoint": "-1", "cloudsCode": "CAVOK", "datetime": "2024-04-27 17:20:00", "countryCode": "CH", "temperature": "18", "humidity": 27, "stationName": "Zurich-Kloten", "weatherCondition": "n/a", "windDirection": 140, "hectoPascAltimeter": 1007, "windSpeed": "11", "lat": 47.483333333333334}, "id": 622}]
[{"weatherObservation": {"elevation": 432, "lng": 8.533333333333333, "observation": "LSZH 271720Z 14011KT CAVOK 18/M01 Q1007 NOSIG", "ICAO": "LSZH", "clouds": "clouds and visibility OK", "dewPoint": "-1", "cloudsCode": "CAVOK", "datetime": "2024-04-27 17:20:00", "countryCode": "CH", "temperature": "18", "humidity": 27, "stationName": "Zurich-Kloten", "weatherCondition": "n/a", "windDirection": 140, "hectoPascAltimeter": 1007, "windSpeed": "11", "lat": 47.483333333333334}, "id": 41}]
[{"weatherObservation": {"elevation": 432, "lng": 8.533333333333333, "observation": "LSZH 271720Z 14011KT CAVOK 18/M01 Q1007 NOSIG", "ICAO": "LSZH", "clouds": "clouds and visibility OK", "dewPoint": "-1", "cloudsCode": "CAVOK", "datetime": "2024-04-27 17:20:00", "countryCode": "CH", "temperature": "18", "humidity": 27, "stationName": "Zurich-Kloten", "weatherCondition": "n/a", "windDirection": 140, "hectoPascAltimeter": 1007, "windSpeed": "11", "lat": 47.483333333333334}, "id": 7}]
[{"weatherObservation": {"elevation": 432, "lng": 8.533333333333333, "observation": "LSZH 271720Z 14011KT CAVOK 18/M01 Q1007 NOSIG", "ICAO": "LSZH", "clouds": "clouds and visibility OK", "dewPoint": "-1", "cloudsCode": "CAVOK", "datetime": "2024-04-27 17:20:00", "countryCode": "CH", "temperature": "18", "humidity": 27, "stationName": "Zurich-Kloten", "weatherCondition": "n/a", "windDirection": 140, "hectoPascAltimeter": 1007, "windSpeed": "11", "lat": 47.483333333333334}, "id": 25}]
[{"weatherObservation": {"elevation": 432, "lng": 8.533333333333333, "observation": "LSZH 271720Z 14011KT CAVOK 18/M01 Q1007 NOSIG", "ICAO": "LSZH", "clouds": "clouds and visibility OK", "dewPoint": "-1", "cloudsCode": "CAVOK", "datetime": "2024-04-27 17:20:00", "countryCode": "CH", "temperature": "18", "humidity": 27, "stationName": "Zurich-Kloten", "weatherCondition": "n/a", "windDirection": 140, "hectoPascAltimeter": 1007, "windSpeed": "11", "lat": 47.483333333333334}, "id": 36}]
[{"weatherObservation": {"elevation": 432, "lng": 8.533333333333333, "observation": "LSZH 271720Z 14011KT CAVOK 18/M01 Q1007 NOSIG", "ICAO": "LSZH", "clouds": "clouds and visibility OK", "dewPoint": "-1", "cloudsCode": "CAVOK", "datetime": "2024-04-27 17:20:00", "countryCode": "CH", "temperature": "18", "humidity": 27, "stationName": "Zurich-Kloten", "weatherCondition": "n/a", "windDirection": 140, "hectoPascAltimeter": 1007, "windSpeed": "11", "lat": 47.483333333333334}, "id": 9}]
[{"weatherObservation": {"elevation": 432, "lng": 8.533333333333333, "observation": "LSZH 271720Z 14011KT CAVOK 18/M01 Q1007 NOSIG", "ICAO": "LSZH", "clouds": "clouds and visibility OK", "dewPoint": "-1", "cloudsCode": "CAVOK", "datetime": "2024-04-27 17:20:00", "countryCode": "CH", "temperature": "18", "humidity": 27, "stationName": "Zurich-Kloten", "weatherCondition": "n/a", "windDirection": 140, "hectoPascAltimeter": 1007, "windSpeed": "11", "lat": 47.483333333333334}, "id": 618}]
[{"weatherObservation": {"elevation": 432, "lng": 8.533333333333333, "observation": "LSZH 271720Z 14011KT CAVOK 18/M01 Q1007 NOSIG", "ICAO": "LSZH", "clouds": "clouds and visibility OK", "dewPoint": "-1", "cloudsCode": "CAVOK", "datetime": "2024-04-27 17:20:00", "countryCode": "CH", "temperature": "18", "humidity": 27, "stationName": "Zurich-Kloten", "weatherCondition": "n/a", "windDirection": 140, "hectoPascAltimeter": 1007, "windSpeed": "11", "lat": 47.483333333333334}, "id": 32}]
[{"weatherObservation": {"elevation": 432, "lng": 8.533333333333333, "observation": "LSZH 271720Z 14011KT CAVOK 18/M01 Q1007 NOSIG", "ICAO": "LSZH", "clouds": "clouds and visibility OK", "dewPoint": "-1", "cloudsCode": "CAVOK", "datetime": "2024-04-27 17:20:00", "countryCode": "CH", "temperature": "18", "humidity": 27, "stationName": "Zurich-Kloten", "weatherCondition": "n/a", "windDirection": 140, "hectoPascAltimeter": 1007, "windSpeed": "11", "lat": 47.483333333333334}, "id": 24}]
[{"weatherObservation": {"elevation": 432, "lng": 8.533333333333333, "observation": "LSZH 271720Z 14011KT CAVOK 18/M01 Q1007 NOSIG", "ICAO": "LSZH", "clouds": "clouds and visibility OK", "dewPoint": "-1", "cloudsCode": "CAVOK", "datetime": "2024-04-27 17:20:00", "countryCode": "CH", "temperature": "18", "humidity": 27, "stationName": "Zurich-Kloten", "weatherCondition": "n/a", "windDirection": 140, "hectoPascAltimeter": 1007, "windSpeed": "11", "lat": 47.483333333333334}, "id": 17}]
[{"weatherObservation": {"elevation": 432, "lng": 8.533333333333333, "observation": "LSZH 271720Z 14011KT CAVOK 18/M01 Q1007 NOSIG", "ICAO": "LSZH", "clouds": "clouds and visibility OK", "dewPoint": "-1", "cloudsCode": "CAVOK", "datetime": "2024-04-27 17:20:00", "countryCode": "CH", "temperature": "18", "humidity": 27, "stationName": "Zurich-Kloten", "weatherCondition": "n/a", "windDirection": 140, "hectoPascAltimeter": 1007, "windSpeed": "11", "lat": 47.483333333333334}, "id": 38}]
[{"weatherObservation": {"elevation": 432, "lng": 8.533333333333333, "observation": "LSZH 271720Z 14011KT CAVOK 18/M01 Q1007 NOSIG", "ICAO": "LSZH", "clouds": "clouds and visibility OK", "dewPoint": "-1", "cloudsCode": "CAVOK", "datetime": "2024-04-27 17:20:00", "countryCode": "CH", "temperature": "18", "humidity": 27, "stationName": "Zurich-Kloten", "weatherCondition": "n/a", "windDirection": 140, "hectoPascAltimeter": 1007, "windSpeed": "11", "lat": 47.483333333333334}, "id": 37}]
[{"weatherObservation": {"elevation": 432, "lng": 8.533333333333333, "observation": "LSZH 271720Z 14011KT CAVOK 18/M01 Q1007 NOSIG", "ICAO": "LSZH", "clouds": "clouds and visibility OK", "dewPoint": "-1", "cloudsCode": "CAVOK", "datetime": "2024-04-27 17:20:00", "countryCode": "CH", "temperature": "18", "humidity": 27, "stationName": "Zurich-Kloten", "weatherCondition": "n/a", "windDirection": 140, "hectoPascAltimeter": 1007, "windSpeed": "11", "lat": 47.483333333333334}, "id": 0}]
[{"weatherObservation": {"elevation": 432, "lng": 8.533333333333333, "observation": "LSZH 271720Z 14011KT CAVOK 18/M01 Q1007 NOSIG", "ICAO": "LSZH", "clouds": "clouds and visibility OK", "dewPoint": "-1", "cloudsCode": "CAVOK", "datetime": "2024-04-27 17:20:00", "countryCode": "CH", "temperature": "18", "humidity": 27, "stationName": "Zurich-Kloten", "weatherCondition": "n/a", "windDirection": 140, "hectoPascAltimeter": 1007, "windSpeed": "11", "lat": 47.483333333333334}, "id": 623}]
[{"weatherObservation": {"elevation": 432, "lng": 8.533333333333333, "observation": "LSZH 271720Z 14011KT CAVOK 18/M01 Q1007 NOSIG", "ICAO": "LSZH", "clouds": "clouds and visibility OK", "dewPoint": "-1", "cloudsCode": "CAVOK", "datetime": "2024-04-27 17:20:00", "countryCode": "CH", "temperature": "18", "humidity": 27, "stationName": "Zurich-Kloten", "weatherCondition": "n/a", "windDirection": 140, "hectoPascAltimeter": 1007, "windSpeed": "11", "lat": 47.483333333333334}, "id": 43}]
[{"weatherObservation": {"elevation": 432, "lng": 8.533333333333333, "observation": "LSZH 271720Z 14011KT CAVOK 18/M01 Q1007 NOSIG", "ICAO": "LSZH", "clouds": "clouds and visibility OK", "dewPoint": "-1", "cloudsCode": "CAVOK", "datetime": "2024-04-27 17:20:00", "countryCode": "CH", "temperature": "18", "humidity": 27, "stationName": "Zurich-Kloten", "weatherCondition": "n/a", "windDirection": 140, "hectoPascAltimeter": 1007, "windSpeed": "11", "lat": 47.483333333333334}, "id": 583}]
[{"weatherObservation": {"elevation": 432, "lng": 8.533333333333333, "observation": "LSZH 271720Z 14011KT CAVOK 18/M01 Q1007 NOSIG", "ICAO": "LSZH", "clouds": "clouds and visibility OK", "dewPoint": "-1", "cloudsCode": "CAVOK", "datetime": "2024-04-27 17:20:00", "countryCode": "CH", "temperature": "18", "humidity": 27, "stationName": "Zurich-Kloten", "weatherCondition": "n/a", "windDirection": 140, "hectoPascAltimeter": 1007, "windSpeed": "11", "lat": 47.483333333333334}, "id": 71}]
[{"weatherObservation": {"elevation": 432, "lng": 8.533333333333333, "observation": "LSZH 271720Z 14011KT CAVOK 18/M01 Q1007 NOSIG", "ICAO": "LSZH", "clouds": "clouds and visibility OK", "dewPoint": "-1", "cloudsCode": "CAVOK", "datetime": "2024-04-27 17:20:00", "countryCode": "CH", "temperature": "18", "humidity": 27, "stationName": "Zurich-Kloten", "weatherCondition": "n/a", "windDirection": 140, "hectoPascAltimeter": 1007, "windSpeed": "11", "lat": 47.483333333333334}, "id": 629}]
[{"weatherObservation": {"elevation": 432, "lng": 8.533333333333333, "observation": "LSZH 271720Z 14011KT CAVOK 18/M01 Q1007 NOSIG", "ICAO": "LSZH", "clouds": "clouds and visibility OK", "dewPoint": "-1", "cloudsCode": "CAVOK", "datetime": "2024-04-27 17:20:00", "countryCode": "CH", "temperature": "18", "humidity": 27, "stationName": "Zurich-Kloten", "weatherCondition": "n/a", "windDirection": 140, "hectoPascAltimeter": 1007, "windSpeed": "11", "lat": 47.483333333333334}, "id": 33}]
[{"weatherObservation": {"elevation": 432, "lng": 8.533333333333333, "observation": "LSZH 271720Z 14011KT CAVOK 18/M01 Q1007 NOSIG", "ICAO": "LSZH", "clouds": "clouds and visibility OK", "dewPoint": "-1", "cloudsCode": "CAVOK", "datetime": "2024-04-27 17:20:00", "countryCode": "CH", "temperature": "18", "humidity": 27, "stationName": "Zurich-Kloten", "weatherCondition": "n/a", "windDirection": 140, "hectoPascAltimeter": 1007, "windSpeed": "11", "lat": 47.483333333333334}, "id": 631}]
[{"weatherObservation": {"elevation": 432, "lng": 8.533333333333333, "observation": "LSZH 271720Z 14011KT CAVOK 18/M01 Q1007 NOSIG", "ICAO": "LSZH", "clouds": "clouds and visibility OK", "dewPoint": "-1", "cloudsCode": "CAVOK", "datetime": "2024-04-27 17:20:00", "countryCode": "CH", "temperature": "18", "humidity": 27, "stationName": "Zurich-Kloten", "weatherCondition": "n/a", "windDirection": 140, "hectoPascAltimeter": 1007, "windSpeed": "11", "lat": 47.483333333333334}, "id": 87}]
[{"weatherObservation": {"elevation": 432, "lng": 8.533333333333333, "observation": "LSZH 271720Z 14011KT CAVOK 18/M01 Q1007 NOSIG", "ICAO": "LSZH", "clouds": "clouds and visibility OK", "dewPoint": "-1", "cloudsCode": "CAVOK", "datetime": "2024-04-27 17:20:00", "countryCode": "CH", "temperature": "18", "humidity": 27, "stationName": "Zurich-Kloten", "weatherCondition": "n/a", "windDirection": 140, "hectoPascAltimeter": 1007, "windSpeed": "11", "lat": 47.483333333333334}, "id": 93}]
[{"weatherObservation": {"elevation": 432, "lng": 8.533333333333333, "observation": "LSZH 271720Z 14011KT CAVOK 18/M01 Q1007 NOSIG", "ICAO": "LSZH", "clouds": "clouds and visibility OK", "dewPoint": "-1", "cloudsCode": "CAVOK", "datetime": "2024-04-27 17:20:00", "countryCode": "CH", "temperature": "18", "humidity": 27, "stationName": "Zurich-Kloten", "weatherCondition": "n/a", "windDirection": 140, "hectoPascAltimeter": 1007, "windSpeed": "11", "lat": 47.483333333333334}, "id": 39}]
[{"weatherObservation": {"elevation": 432, "lng": 8.533333333333333, "observation": "LSZH 271720Z 14011KT CAVOK 18/M01 Q1007 NOSIG", "ICAO": "LSZH", "clouds": "clouds and visibility OK", "dewPoint": "-1", "cloudsCode": "CAVOK", "datetime": "2024-04-27 17:20:00", "countryCode": "CH", "temperature": "18", "humidity": 27, "stationName": "Zurich-Kloten", "weatherCondition": "n/a", "windDirection": 140, "hectoPascAltimeter": 1007, "windSpeed": "11", "lat": 47.483333333333334}, "id": 27}]
[{"weatherObservation": {"elevation": 432, "lng": 8.533333333333333, "observation": "LSZH 271720Z 14011KT CAVOK 18/M01 Q1007 NOSIG", "ICAO": "LSZH", "clouds": "clouds and visibility OK", "dewPoint": "-1", "cloudsCode": "CAVOK", "datetime": "2024-04-27 17:20:00", "countryCode": "CH", "temperature": "18", "humidity": 27, "stationName": "Zurich-Kloten", "weatherCondition": "n/a", "windDirection": 140, "hectoPascAltimeter": 1007, "windSpeed": "11", "lat": 47.483333333333334}, "id": 638}]
[{"weatherObservation": {"elevation": 432, "lng": 8.533333333333333, "observation": "LSZH 271720Z 14011KT CAVOK 18/M01 Q1007 NOSIG", "ICAO": "LSZH", "clouds": "clouds and visibility OK", "dewPoint": "-1", "cloudsCode": "CAVOK", "datetime": "2024-04-27 17:20:00", "countryCode": "CH", "temperature": "18", "humidity": 27, "stationName": "Zurich-Kloten", "weatherCondition": "n/a", "windDirection": 140, "hectoPascAltimeter": 1007, "windSpeed": "11", "lat": 47.483333333333334}, "id": 26}]
[{"weatherObservation": {"elevation": 432, "lng": 8.533333333333333, "observation": "LSZH 271720Z 14011KT CAVOK 18/M01 Q1007 NOSIG", "ICAO": "LSZH", "clouds": "clouds and visibility OK", "dewPoint": "-1", "cloudsCode": "CAVOK", "datetime": "2024-04-27 17:20:00", "countryCode": "CH", "temperature": "18", "humidity": 27, "stationName": "Zurich-Kloten", "weatherCondition": "n/a", "windDirection": 140, "hectoPascAltimeter": 1007, "windSpeed": "11", "lat": 47.483333333333334}, "id": 23}]
[{"weatherObservation": {"elevation": 432, "lng": 8.533333333333333, "observation": "LSZH 271720Z 14011KT CAVOK 18/M01 Q1007 NOSIG", "ICAO": "LSZH", "clouds": "clouds and visibility OK", "dewPoint": "-1", "cloudsCode": "CAVOK", "datetime": "2024-04-27 17:20:00", "countryCode": "CH", "temperature": "18", "humidity": 27, "stationName": "Zurich-Kloten", "weatherCondition": "n/a", "windDirection": 140, "hectoPascAltimeter": 1007, "windSpeed": "11", "lat": 47.483333333333334}, "id": 94}]
[{"weatherObservation": {"elevation": 432, "lng": 8.533333333333333, "observation": "LSZH 271720Z 14011KT CAVOK 18/M01 Q1007 NOSIG", "ICAO": "LSZH", "clouds": "clouds and visibility OK", "dewPoint": "-1", "cloudsCode": "CAVOK", "datetime": "2024-04-27 17:20:00", "countryCode": "CH", "temperature": "18", "humidity": 27, "stationName": "Zurich-Kloten", "weatherCondition": "n/a", "windDirection": 140, "hectoPascAltimeter": 1007, "windSpeed": "11", "lat": 47.483333333333334}, "id": 647}]
[{"weatherObservation": {"elevation": 432, "lng": 8.533333333333333, "observation": "LSZH 271720Z 14011KT CAVOK 18/M01 Q1007 NOSIG", "ICAO": "LSZH", "clouds": "clouds and visibility OK", "dewPoint": "-1", "cloudsCode": "CAVOK", "datetime": "2024-04-27 17:20:00", "countryCode": "CH", "temperature": "18", "humidity": 27, "stationName": "Zurich-Kloten", "weatherCondition": "n/a", "windDirection": 140, "hectoPascAltimeter": 1007, "windSpeed": "11", "lat": 47.483333333333334}, "id": 79}]
[{"weatherObservation": {"elevation": 432, "lng": 8.533333333333333, "observation": "LSZH 271720Z 14011KT CAVOK 18/M01 Q1007 NOSIG", "ICAO": "LSZH", "clouds": "clouds and visibility OK", "dewPoint": "-1", "cloudsCode": "CAVOK", "datetime": "2024-04-27 17:20:00", "countryCode": "CH", "temperature": "18", "humidity": 27, "stationName": "Zurich-Kloten", "weatherCondition": "n/a", "windDirection": 140, "hectoPascAltimeter": 1007, "windSpeed": "11", "lat": 47.483333333333334}, "id": 92}]
[{"weatherObservation": {"elevation": 432, "lng": 8.533333333333333, "observation": "LSZH 271720Z 14011KT CAVOK 18/M01 Q1007 NOSIG", "ICAO": "LSZH", "clouds": "clouds and visibility OK", "dewPoint": "-1", "cloudsCode": "CAVOK", "datetime": "2024-04-27 17:20:00", "countryCode": "CH", "temperature": "18", "humidity": 27, "stationName": "Zurich-Kloten", "weatherCondition": "n/a", "windDirection": 140, "hectoPascAltimeter": 1007, "windSpeed": "11", "lat": 47.483333333333334}, "id": 90}]
[{"weatherObservation": {"elevation": 432, "lng": 8.533333333333333, "observation": "LSZH 271720Z 14011KT CAVOK 18/M01 Q1007 NOSIG", "ICAO": "LSZH", "clouds": "clouds and visibility OK", "dewPoint": "-1", "cloudsCode": "CAVOK", "datetime": "2024-04-27 17:20:00", "countryCode": "CH", "temperature": "18", "humidity": 27, "stationName": "Zurich-Kloten", "weatherCondition": "n/a", "windDirection": 140, "hectoPascAltimeter": 1007, "windSpeed": "11", "lat": 47.483333333333334}, "id": 639}]
[{"weatherObservation": {"elevation": 432, "lng": 8.533333333333333, "observation": "LSZH 271720Z 14011KT CAVOK 18/M01 Q1007 NOSIG", "ICAO": "LSZH", "clouds": "clouds and visibility OK", "dewPoint": "-1", "cloudsCode": "CAVOK", "datetime": "2024-04-27 17:20:00", "countryCode": "CH", "temperature": "18", "humidity": 27, "stationName": "Zurich-Kloten", "weatherCondition": "n/a", "windDirection": 140, "hectoPascAltimeter": 1007, "windSpeed": "11", "lat": 47.483333333333334}, "id": 652}]
[{"weatherObservation": {"elevation": 432, "lng": 8.533333333333333, "observation": "LSZH 271720Z 14011KT CAVOK 18/M01 Q1007 NOSIG", "ICAO": "LSZH", "clouds": "clouds and visibility OK", "dewPoint": "-1", "cloudsCode": "CAVOK", "datetime": "2024-04-27 17:20:00", "countryCode": "CH", "temperature": "18", "humidity": 27, "stationName": "Zurich-Kloten", "weatherCondition": "n/a", "windDirection": 140, "hectoPascAltimeter": 1007, "windSpeed": "11", "lat": 47.483333333333334}, "id": 646}]
[{"weatherObservation": {"elevation": 432, "lng": 8.533333333333333, "observation": "LSZH 271720Z 14011KT CAVOK 18/M01 Q1007 NOSIG", "ICAO": "LSZH", "clouds": "clouds and visibility OK", "dewPoint": "-1", "cloudsCode": "CAVOK", "datetime": "2024-04-27 17:20:00", "countryCode": "CH", "temperature": "18", "humidity": 27, "stationName": "Zurich-Kloten", "weatherCondition": "n/a", "windDirection": 140, "hectoPascAltimeter": 1007, "windSpeed": "11", "lat": 47.483333333333334}, "id": 643}]
[{"weatherObservation": {"elevation": 432, "lng": 8.533333333333333, "observation": "LSZH 271720Z 14011KT CAVOK 18/M01 Q1007 NOSIG", "ICAO": "LSZH", "clouds": "clouds and visibility OK", "dewPoint": "-1", "cloudsCode": "CAVOK", "datetime": "2024-04-27 17:20:00", "countryCode": "CH", "temperature": "18", "humidity": 27, "stationName": "Zurich-Kloten", "weatherCondition": "n/a", "windDirection": 140, "hectoPascAltimeter": 1007, "windSpeed": "11", "lat": 47.483333333333334}, "id": 648}]
[{"weatherObservation": {"elevation": 432, "lng": 8.533333333333333, "observation": "LSZH 271720Z 14011KT CAVOK 18/M01 Q1007 NOSIG", "ICAO": "LSZH", "clouds": "clouds and visibility OK", "dewPoint": "-1", "cloudsCode": "CAVOK", "datetime": "2024-04-27 17:20:00", "countryCode": "CH", "temperature": "18", "humidity": 27, "stationName": "Zurich-Kloten", "weatherCondition": "n/a", "windDirection": 140, "hectoPascAltimeter": 1007, "windSpeed": "11", "lat": 47.483333333333334}, "id": 133}]
[{"weatherObservation": {"elevation": 432, "lng": 8.533333333333333, "observation": "LSZH 271720Z 14011KT CAVOK 18/M01 Q1007 NOSIG", "ICAO": "LSZH", "clouds": "clouds and visibility OK", "dewPoint": "-1", "cloudsCode": "CAVOK", "datetime": "2024-04-27 17:20:00", "countryCode": "CH", "temperature": "18", "humidity": 27, "stationName": "Zurich-Kloten", "weatherCondition": "n/a", "windDirection": 140, "hectoPascAltimeter": 1007, "windSpeed": "11", "lat": 47.483333333333334}, "id": 645}]
[{"weatherObservation": {"elevation": 432, "lng": 8.533333333333333, "observation": "LSZH 271720Z 14011KT CAVOK 18/M01 Q1007 NOSIG", "ICAO": "LSZH", "clouds": "clouds and visibility OK", "dewPoint": "-1", "cloudsCode": "CAVOK", "datetime": "2024-04-27 17:20:00", "countryCode": "CH", "temperature": "18", "humidity": 27, "stationName": "Zurich-Kloten", "weatherCondition": "n/a", "windDirection": 140, "hectoPascAltimeter": 1007, "windSpeed": "11", "lat": 47.483333333333334}, "id": 634}]
[{"weatherObservation": {"elevation": 432, "lng": 8.533333333333333, "observation": "LSZH 271720Z 14011KT CAVOK 18/M01 Q1007 NOSIG", "ICAO": "LSZH", "clouds": "clouds and visibility OK", "dewPoint": "-1", "cloudsCode": "CAVOK", "datetime": "2024-04-27 17:20:00", "countryCode": "CH", "temperature": "18", "humidity": 27, "stationName": "Zurich-Kloten", "weatherCondition": "n/a", "windDirection": 140, "hectoPascAltimeter": 1007, "windSpeed": "11", "lat": 47.483333333333334}, "id": 633}]
[{"weatherObservation": {"elevation": 432, "lng": 8.533333333333333, "observation": "LSZH 271720Z 14011KT CAVOK 18/M01 Q1007 NOSIG", "ICAO": "LSZH", "clouds": "clouds and visibility OK", "dewPoint": "-1", "cloudsCode": "CAVOK", "datetime": "2024-04-27 17:20:00", "countryCode": "CH", "temperature": "18", "humidity": 27, "stationName": "Zurich-Kloten", "weatherCondition": "n/a", "windDirection": 140, "hectoPascAltimeter": 1007, "windSpeed": "11", "lat": 47.483333333333334}, "id": 83}]
[{"weatherObservation": {"elevation": 432, "lng": 8.533333333333333, "observation": "LSZH 271720Z 14011KT CAVOK 18/M01 Q1007 NOSIG", "ICAO": "LSZH", "clouds": "clouds and visibility OK", "dewPoint": "-1", "cloudsCode": "CAVOK", "datetime": "2024-04-27 17:20:00", "countryCode": "CH", "temperature": "18", "humidity": 27, "stationName": "Zurich-Kloten", "weatherCondition": "n/a", "windDirection": 140, "hectoPascAltimeter": 1007, "windSpeed": "11", "lat": 47.483333333333334}, "id": 636}]
[{"weatherObservation": {"elevation": 432, "lng": 8.533333333333333, "observation": "LSZH 271720Z 14011KT CAVOK 18/M01 Q1007 NOSIG", "ICAO": "LSZH", "clouds": "clouds and visibility OK", "dewPoint": "-1", "cloudsCode": "CAVOK", "datetime": "2024-04-27 17:20:00", "countryCode": "CH", "temperature": "18", "humidity": 27, "stationName": "Zurich-Kloten", "weatherCondition": "n/a", "windDirection": 140, "hectoPascAltimeter": 1007, "windSpeed": "11", "lat": 47.483333333333334}, "id": 630}]
[{"weatherObservation": {"elevation": 432, "lng": 8.533333333333333, "observation": "LSZH 271720Z 14011KT CAVOK 18/M01 Q1007 NOSIG", "ICAO": "LSZH", "clouds": "clouds and visibility OK", "dewPoint": "-1", "cloudsCode": "CAVOK", "datetime": "2024-04-27 17:20:00", "countryCode": "CH", "temperature": "18", "humidity": 27, "stationName": "Zurich-Kloten", "weatherCondition": "n/a", "windDirection": 140, "hectoPascAltimeter": 1007, "windSpeed": "11", "lat": 47.483333333333334}, "id": 656}]
[{"weatherObservation": {"elevation": 432, "lng": 8.533333333333333, "observation": "LSZH 271720Z 14011KT CAVOK 18/M01 Q1007 NOSIG", "ICAO": "LSZH", "clouds": "clouds and visibility OK", "dewPoint": "-1", "cloudsCode": "CAVOK", "datetime": "2024-04-27 17:20:00", "countryCode": "CH", "temperature": "18", "humidity": 27, "stationName": "Zurich-Kloten", "weatherCondition": "n/a", "windDirection": 140, "hectoPascAltimeter": 1007, "windSpeed": "11", "lat": 47.483333333333334}, "id": 649}]
[{"weatherObservation": {"elevation": 432, "lng": 8.533333333333333, "observation": "LSZH 271720Z 14011KT CAVOK 18/M01 Q1007 NOSIG", "ICAO": "LSZH", "clouds": "clouds and visibility OK", "dewPoint": "-1", "cloudsCode": "CAVOK", "datetime": "2024-04-27 17:20:00", "countryCode": "CH", "temperature": "18", "humidity": 27, "stationName": "Zurich-Kloten", "weatherCondition": "n/a", "windDirection": 140, "hectoPascAltimeter": 1007, "windSpeed": "11", "lat": 47.483333333333334}, "id": 89}]
[{"weatherObservation": {"elevation": 432, "lng": 8.533333333333333, "observation": "LSZH 271720Z 14011KT CAVOK 18/M01 Q1007 NOSIG", "ICAO": "LSZH", "clouds": "clouds and visibility OK", "dewPoint": "-1", "cloudsCode": "CAVOK", "datetime": "2024-04-27 17:20:00", "countryCode": "CH", "temperature": "18", "humidity": 27, "stationName": "Zurich-Kloten", "weatherCondition": "n/a", "windDirection": 140, "hectoPascAltimeter": 1007, "windSpeed": "11", "lat": 47.483333333333334}, "id": 637}]
[{"weatherObservation": {"elevation": 432, "lng": 8.533333333333333, "observation": "LSZH 271720Z 14011KT CAVOK 18/M01 Q1007 NOSIG", "ICAO": "LSZH", "clouds": "clouds and visibility OK", "dewPoint": "-1", "cloudsCode": "CAVOK", "datetime": "2024-04-27 17:20:00", "countryCode": "CH", "temperature": "18", "humidity": 27, "stationName": "Zurich-Kloten", "weatherCondition": "n/a", "windDirection": 140, "hectoPascAltimeter": 1007, "windSpeed": "11", "lat": 47.483333333333334}, "id": 657}]